{"type": "Feature", "properties": {"key": "centennial", "name": "Centennial"}, "geometry": {"type": "MultiPolygon", "coordinates": [[[[-104.979187, 39.566091], [-104.979126, 39.569421], [-104.977244, 39.569347], [-104.97595, 39.568517], [-104.977414, 39.567416], [-104.977449, 39.566083], [-104.979187, 39.566091]]], [[[-104.98834, 39.584243], [-104.988326, 39.588988], [-104.986932, 39.589001], [-104.986925, 39.589207], [-104.986926, 39.589685], [-104.988311, 39.589687], [-104.988271, 39.594547], [-104.986434, 39.593967], [-104.986417, 39.595099], [-104.988289, 39.59511], [-104.988216, 39.598973], [-104.986157, 39.598984], [-104.985579, 39.600259], [-104.985156, 39.600761], [-104.986469, 39.601309], [-104.988187, 39.601385], [-104.988184, 39.601793], [-104.987607, 39.601787], [-104.987599, 39.601462], [-104.987485, 39.601461], [-104.987496, 39.601788], [-104.987034, 39.601811], [-104.98703, 39.602181], [-104.987429, 39.602356], [-104.98818, 39.602295], [-104.98817, 39.603514], [-104.987352, 39.603506], [-104.98734, 39.603886], [-104.986909, 39.603886], [-104.986904, 39.604296], [-104.986356, 39.604295], [-104.986282, 39.609592], [-104.985699, 39.609593], [-104.985678, 39.61231], [-104.983368, 39.612308], [-104.983366, 39.613186], [-104.980426, 39.613192], [-104.978718, 39.611576], [-104.97872, 39.611418], [-104.979879, 39.611415], [-104.97986, 39.609604], [-104.964667, 39.60969], [-104.964694, 39.607403], [-104.963655, 39.607361], [-104.96265, 39.606886], [-104.962365, 39.606603], [-104.962363, 39.606084], [-104.960037, 39.606109], [-104.960029, 39.607188], [-104.958235, 39.607167], [-104.95736, 39.607426], [-104.956347, 39.608473], [-104.956178, 39.609697], [-104.92285, 39.609582], [-104.922853, 39.607118], [-104.919722, 39.607122], [-104.9194, 39.609572], [-104.904105, 39.60956], [-104.904115, 39.602294], [-104.894995, 39.602298], [-104.894999, 39.598673], [-104.897199, 39.598663], [-104.897207, 39.596882], [-104.898754, 39.596886], [-104.898752, 39.596334], [-104.898963, 39.59617], [-104.89944, 39.596339], [-104.89943, 39.596891], [-104.900047, 39.596896], [-104.899856, 39.59642], [-104.898229, 39.595753], [-104.897973, 39.595466], [-104.897913, 39.595032], [-104.890223, 39.595039], [-104.885462, 39.594556], [-104.882947, 39.591167], [-104.880978, 39.587763], [-104.878569, 39.587763], [-104.878647, 39.591423], [-104.873347, 39.591327], [-104.873347, 39.591428], [-104.871525, 39.591423], [-104.871495, 39.593223], [-104.873314, 39.593217], [-104.873296, 39.591506], [-104.874435, 39.59151], [-104.874435, 39.595025], [-104.876227, 39.595026], [-104.876163, 39.598686], [-104.875078, 39.598476], [-104.87364, 39.597439], [-104.872531, 39.597175], [-104.868332, 39.597133], [-104.867982, 39.597814], [-104.867234, 39.598365], [-104.866845, 39.598844], [-104.862091, 39.598425], [-104.862067, 39.602306], [-104.848014, 39.602327], [-104.847972, 39.604121], [-104.846821, 39.604107], [-104.844459, 39.60591], [-104.838542, 39.605932], [-104.838566, 39.604115], [-104.836132, 39.60411], [-104.83609, 39.60592], [-104.833768, 39.60591], [-104.833805, 39.604099], [-104.833461, 39.604095], [-104.831476, 39.604095], [-104.831455, 39.605917], [-104.824572, 39.605887], [-104.824593, 39.602186], [-104.826874, 39.602223], [-104.825422, 39.600044], [-104.820885, 39.594777], [-104.815301, 39.594759], [-104.815365, 39.587759], [-104.810703, 39.58775], [-104.810691, 39.5897], [-104.809848, 39.589619], [-104.806013, 39.587731], [-104.806015, 39.587182], [-104.803687, 39.587173], [-104.803444, 39.58641], [-104.803383, 39.58512], [-104.802422, 39.583535], [-104.801528, 39.582118], [-104.798692, 39.579251], [-104.796599, 39.578428], [-104.795619, 39.578308], [-104.793262, 39.578824], [-104.793935, 39.580437], [-104.773346, 39.580422], [-104.773033, 39.604725], [-104.773122, 39.605894], [-104.772983, 39.607488], [-104.773578, 39.607441], [-104.773582, 39.607551], [-104.773262, 39.607552], [-104.77325, 39.608444], [-104.774242, 39.608525], [-104.774288, 39.609259], [-104.776573, 39.609101], [-104.776752, 39.609288], [-104.777373, 39.609359], [-104.777328, 39.60947], [-104.777496, 39.609506], [-104.791713, 39.609498], [-104.791936, 39.594921], [-104.79661, 39.594924], [-104.796551, 39.59968], [-104.794313, 39.599678], [-104.794303, 39.600357], [-104.796541, 39.600358], [-104.796512, 39.602534], [-104.805521, 39.602525], [-104.80557, 39.602429], [-104.806055, 39.60249], [-104.805899, 39.602196], [-104.806502, 39.602196], [-104.806297, 39.602167], [-104.805846, 39.601484], [-104.802251, 39.594939], [-104.806962, 39.594907], [-104.807755, 39.594915], [-104.807815, 39.595158], [-104.807779, 39.601672], [-104.809879, 39.601665], [-104.809879, 39.601565], [-104.810374, 39.601562], [-104.810892, 39.60116], [-104.8112, 39.601406], [-104.811193, 39.602139], [-104.813263, 39.602147], [-104.816924, 39.60507], [-104.819939, 39.60423], [-104.819915, 39.609481], [-104.810525, 39.609442], [-104.810422, 39.617094], [-104.809664, 39.617746], [-104.811241, 39.618941], [-104.810682, 39.619442], [-104.810407, 39.620068], [-104.810349, 39.623874], [-104.810153, 39.623982], [-104.794784, 39.62396], [-104.794783, 39.627227], [-104.786049, 39.623966], [-104.76342, 39.623992], [-104.763317, 39.631413], [-104.76264, 39.631412], [-104.76258, 39.632894], [-104.762577, 39.633762], [-104.763279, 39.633768], [-104.76326, 39.635856], [-104.763075, 39.635901], [-104.762723, 39.635379], [-104.762217, 39.634959], [-104.76077, 39.634393], [-104.760486, 39.634878], [-104.760473, 39.63842], [-104.75389, 39.638382], [-104.753997, 39.624002], [-104.751777, 39.624001], [-104.751296, 39.623679], [-104.751479, 39.623462], [-104.751378, 39.623411], [-104.751189, 39.623634], [-104.750389, 39.622964], [-104.74972, 39.622978], [-104.749591, 39.622705], [-104.749418, 39.622992], [-104.749236, 39.622994], [-104.748083, 39.622104], [-104.747876, 39.62132], [-104.748, 39.620932], [-104.748493, 39.620958], [-104.748553, 39.620793], [-104.748486, 39.618817], [-104.748587, 39.618282], [-104.748083, 39.618512], [-104.747137, 39.617625], [-104.747101, 39.617344], [-104.746561, 39.61802], [-104.745883, 39.618427], [-104.745122, 39.618538], [-104.742757, 39.618419], [-104.741423, 39.617231], [-104.741548, 39.616472], [-104.739622, 39.617498], [-104.740153, 39.617623], [-104.740769, 39.618237], [-104.741163, 39.618191], [-104.741301, 39.618633], [-104.74192, 39.619031], [-104.742778, 39.618883], [-104.743896, 39.619046], [-104.745014, 39.619556], [-104.746132, 39.619871], [-104.74623, 39.619969], [-104.746008, 39.620218], [-104.746301, 39.620532], [-104.746473, 39.621105], [-104.746812, 39.621047], [-104.747124, 39.622101], [-104.7481, 39.622959], [-104.748223, 39.623304], [-104.748704, 39.623303], [-104.748815, 39.623578], [-104.749773, 39.623601], [-104.749848, 39.623741], [-104.750206, 39.62382], [-104.750206, 39.623997], [-104.738231, 39.623976], [-104.738265, 39.622836], [-104.738699, 39.621496], [-104.738704, 39.619047], [-104.737788, 39.619058], [-104.737076, 39.618872], [-104.735182, 39.617495], [-104.73343, 39.616961], [-104.732184, 39.616175], [-104.731668, 39.615418], [-104.730625, 39.612978], [-104.730765, 39.611631], [-104.728889, 39.610969], [-104.727337, 39.610149], [-104.727698, 39.609741], [-104.727857, 39.60979], [-104.727858, 39.609437], [-104.72697, 39.609206], [-104.726638, 39.608639], [-104.726687, 39.607211], [-104.726175, 39.605688], [-104.728232, 39.60527], [-104.728446, 39.605033], [-104.729171, 39.605418], [-104.729284, 39.605825], [-104.729432, 39.605867], [-104.729447, 39.60643], [-104.73009, 39.607453], [-104.73044, 39.609275], [-104.735342, 39.609282], [-104.735337, 39.605294], [-104.734447, 39.605523], [-104.734177, 39.60524], [-104.73461, 39.603814], [-104.734321, 39.60305], [-104.734089, 39.603086], [-104.734107, 39.602914], [-104.733574, 39.602005], [-104.732678, 39.602101], [-104.733096, 39.601238], [-104.733932, 39.600476], [-104.734581, 39.599352], [-104.736034, 39.598027], [-104.736794, 39.597575], [-104.737954, 39.598485], [-104.738478, 39.598631], [-104.739202, 39.598597], [-104.739952, 39.598228], [-104.740543, 39.597391], [-104.739813, 39.597057], [-104.740343, 39.596], [-104.740698, 39.595809], [-104.744919, 39.596145], [-104.744839, 39.602192], [-104.746259, 39.602204], [-104.749899, 39.600234], [-104.751094, 39.599336], [-104.751673, 39.599158], [-104.752532, 39.59937], [-104.752553, 39.599099], [-104.752879, 39.598827], [-104.753494, 39.598953], [-104.753754, 39.598697], [-104.753754, 39.597728], [-104.754298, 39.597574], [-104.754282, 39.595015], [-104.749604, 39.594917], [-104.749751, 39.587718], [-104.745102, 39.587697], [-104.744923, 39.593885], [-104.744595, 39.593472], [-104.743573, 39.593083], [-104.743233, 39.592689], [-104.743144, 39.591719], [-104.743967, 39.589678], [-104.743997, 39.587695], [-104.737926, 39.587666], [-104.737979, 39.584954], [-104.73558, 39.584929], [-104.735544, 39.587216], [-104.734971, 39.587211], [-104.734229, 39.586871], [-104.734749, 39.586276], [-104.732819, 39.584963], [-104.731754, 39.585028], [-104.731654, 39.584366], [-104.731824, 39.584239], [-104.731659, 39.584092], [-104.731731, 39.583232], [-104.732417, 39.583369], [-104.732499, 39.581478], [-104.732759, 39.581132], [-104.731667, 39.581134], [-104.731236, 39.581796], [-104.73112, 39.581751], [-104.731987, 39.580392], [-104.745292, 39.580584], [-104.751959, 39.58046], [-104.75195, 39.580287], [-104.754865, 39.580184], [-104.755466, 39.579774], [-104.756121, 39.578248], [-104.755553, 39.578255], [-104.755416, 39.577001], [-104.756239, 39.576924], [-104.756185, 39.575915], [-104.756764, 39.575235], [-104.756341, 39.574938], [-104.756547, 39.573164], [-104.782792, 39.573186], [-104.782859, 39.569555], [-104.787368, 39.569562], [-104.784965, 39.566088], [-104.785519, 39.566087], [-104.787376, 39.568966], [-104.787499, 39.568918], [-104.787935, 39.569558], [-104.801735, 39.569584], [-104.801347, 39.580463], [-104.809219, 39.580491], [-104.808124, 39.579355], [-104.80709, 39.576851], [-104.805799, 39.577174], [-104.804728, 39.577842], [-104.804167, 39.578377], [-104.803375, 39.577756], [-104.805152, 39.576634], [-104.806813, 39.576146], [-104.80537, 39.57251], [-104.804475, 39.570689], [-104.800987, 39.565948], [-104.813658, 39.565988], [-104.813894, 39.566232], [-104.812312, 39.56623], [-104.812307, 39.568306], [-104.803614, 39.568786], [-104.805223, 39.571237], [-104.807116, 39.575797], [-104.807336, 39.576023], [-104.809574, 39.575684], [-104.814184, 39.576678], [-104.817385, 39.576389], [-104.818605, 39.576486], [-104.818895, 39.574731], [-104.818816, 39.573987], [-104.818417, 39.573316], [-104.817272, 39.573891], [-104.816511, 39.573887], [-104.816525, 39.57352], [-104.816124, 39.572329], [-104.816177, 39.570935], [-104.816852, 39.570771], [-104.817314, 39.570282], [-104.818767, 39.570929], [-104.827011, 39.573447], [-104.827996, 39.573922], [-104.82865, 39.574436], [-104.829215, 39.575245], [-104.829417, 39.575905], [-104.829445, 39.577056], [-104.829686, 39.577058], [-104.829739, 39.577572], [-104.831072, 39.577592], [-104.831676, 39.57642], [-104.831951, 39.576448], [-104.832553, 39.576859], [-104.832326, 39.577108], [-104.832003, 39.578011], [-104.829695, 39.577943], [-104.829637, 39.580484], [-104.843476, 39.580517], [-104.843441, 39.58597], [-104.848077, 39.586066], [-104.848093, 39.594853], [-104.85628, 39.594876], [-104.856281, 39.594046], [-104.85511, 39.593965], [-104.855121, 39.591803], [-104.856899, 39.591807], [-104.85683, 39.590372], [-104.857273, 39.589288], [-104.85723, 39.587949], [-104.857198, 39.587787], [-104.855141, 39.587889], [-104.855141, 39.587793], [-104.853968, 39.587793], [-104.853998, 39.582337], [-104.855164, 39.582335], [-104.855173, 39.581783], [-104.857004, 39.58178], [-104.85763, 39.582901], [-104.857666, 39.587409], [-104.861241, 39.587655], [-104.861334, 39.585739], [-104.858693, 39.585743], [-104.858666, 39.585637], [-104.859636, 39.584982], [-104.859897, 39.584457], [-104.86023, 39.584423], [-104.860496, 39.583464], [-104.860068, 39.582572], [-104.860198, 39.581952], [-104.863148, 39.581947], [-104.86341, 39.582082], [-104.862473, 39.582741], [-104.861067, 39.583459], [-104.861434, 39.584335], [-104.861482, 39.585274], [-104.861795, 39.585246], [-104.864853, 39.584199], [-104.864253, 39.583226], [-104.864169, 39.582458], [-104.866777, 39.582488], [-104.867312, 39.581713], [-104.868189, 39.581187], [-104.871513, 39.580375], [-104.875477, 39.58027], [-104.874728, 39.576908], [-104.872144, 39.568312], [-104.871051, 39.567207], [-104.869657, 39.56641], [-104.867114, 39.566077], [-104.867124, 39.56598], [-104.941705, 39.566025], [-104.960972, 39.566155], [-104.973255, 39.566069], [-104.973246, 39.56777], [-104.974085, 39.567851], [-104.974919, 39.568126], [-104.977118, 39.569515], [-104.979123, 39.5696], [-104.979098, 39.57278], [-104.975848, 39.572328], [-104.975647, 39.572165], [-104.975504, 39.572481], [-104.975582, 39.572728], [-104.976674, 39.573533], [-104.978258, 39.574149], [-104.979069, 39.574924], [-104.978991, 39.584193], [-104.98834, 39.584243]], [[-104.877898, 39.584153], [-104.877439, 39.583284], [-104.876975, 39.582889], [-104.876384, 39.581734], [-104.875488, 39.580894], [-104.875068, 39.580717], [-104.872341, 39.580614], [-104.868902, 39.581274], [-104.867973, 39.58165], [-104.867393, 39.582175], [-104.867131, 39.582652], [-104.866994, 39.584152], [-104.871399, 39.584174], [-104.871433, 39.583233], [-104.871789, 39.582665], [-104.872342, 39.58235], [-104.873318, 39.582213], [-104.873835, 39.581991], [-104.874035, 39.58218], [-104.873317, 39.582439], [-104.873314, 39.583296], [-104.871707, 39.583296], [-104.871685, 39.584172], [-104.877898, 39.584153]], [[-104.877467, 39.579542], [-104.877104, 39.579338], [-104.876298, 39.578339], [-104.876296, 39.578727], [-104.877471, 39.579787], [-104.877467, 39.579542]], [[-104.857473, 39.589773], [-104.857186, 39.590465], [-104.857185, 39.591528], [-104.857446, 39.592117], [-104.857473, 39.589773]], [[-104.824894, 39.579771], [-104.823982, 39.578165], [-104.823036, 39.57813], [-104.822027, 39.577893], [-104.819381, 39.576711], [-104.819068, 39.57723], [-104.819912, 39.577533], [-104.820465, 39.578712], [-104.819254, 39.580004], [-104.819765, 39.580495], [-104.820113, 39.580492], [-104.820069, 39.585771], [-104.821078, 39.585631], [-104.822357, 39.584895], [-104.822157, 39.583195], [-104.822418, 39.582359], [-104.823076, 39.58171], [-104.822962, 39.58047], [-104.824679, 39.580489], [-104.824653, 39.580134], [-104.824894, 39.579771]], [[-104.822491, 39.585688], [-104.822418, 39.5851], [-104.821064, 39.585869], [-104.820068, 39.585957], [-104.820047, 39.588563], [-104.822121, 39.58857], [-104.822491, 39.585688]], [[-104.814697, 39.580496], [-104.812526, 39.580502], [-104.809866, 39.580492], [-104.812503, 39.581885], [-104.813462, 39.581369], [-104.814054, 39.580808], [-104.814245, 39.580927], [-104.814697, 39.580496]], [[-104.794681, 39.57804], [-104.794619, 39.577885], [-104.792887, 39.577889], [-104.793136, 39.5785], [-104.794681, 39.57804]], [[-104.774045, 39.608689], [-104.773087, 39.60869], [-104.773112, 39.609459], [-104.774035, 39.609458], [-104.774045, 39.608689]], [[-104.773516, 39.617988], [-104.772838, 39.616605], [-104.772966, 39.60962], [-104.772794, 39.609614], [-104.77288, 39.608163], [-104.772192, 39.608758], [-104.770896, 39.608878], [-104.770879, 39.608508], [-104.771822, 39.608461], [-104.772221, 39.608218], [-104.772193, 39.606978], [-104.769516, 39.60457], [-104.768839, 39.604352], [-104.768343, 39.603761], [-104.767024, 39.603434], [-104.765449, 39.602539], [-104.754222, 39.602497], [-104.754157, 39.609472], [-104.756023, 39.609477], [-104.756142, 39.611045], [-104.755506, 39.612014], [-104.759673, 39.614325], [-104.760871, 39.614829], [-104.765029, 39.615592], [-104.773157, 39.618793], [-104.773516, 39.617988]], [[-104.740775, 39.616496], [-104.739768, 39.615167], [-104.738473, 39.614644], [-104.737133, 39.614307], [-104.735831, 39.614502], [-104.735305, 39.613976], [-104.735312, 39.614993], [-104.737191, 39.614889], [-104.738835, 39.615525], [-104.739818, 39.616432], [-104.740012, 39.616872], [-104.740775, 39.616496]]]]}}