{"type": "Feature", "properties": {"key": "denver", "name": "Denver"}, "geometry": {"type": "MultiPolygon", "coordinates": [[[[-104.934135, 39.700181], [-104.931714, 39.700208], [-104.931651, 39.698398], [-104.934076, 39.698436], [-104.934135, 39.700181]]], [[[-105.109924, 39.62716], [-105.109875, 39.635072], [-105.091103, 39.635083], [-105.0911, 39.638719], [-105.081676, 39.638759], [-105.081578, 39.638667], [-105.081716, 39.636867], [-105.081541, 39.636721], [-105.081565, 39.636166], [-105.080299, 39.636209], [-105.07995, 39.636643], [-105.07945, 39.636727], [-105.077147, 39.636413], [-105.075222, 39.636515], [-105.074176, 39.636752], [-105.073307, 39.636563], [-105.073271, 39.63874], [-105.076803, 39.638735], [-105.076773, 39.639353], [-105.075897, 39.64118], [-105.07576, 39.64205], [-105.074454, 39.644104], [-105.073816, 39.644628], [-105.072326, 39.64535], [-105.072093, 39.645647], [-105.072045, 39.645984], [-105.063223, 39.645992], [-105.063197, 39.649626], [-105.057091, 39.649701], [-105.057073, 39.651248], [-105.053581, 39.65116], [-105.053754, 39.651727], [-105.054513, 39.65176], [-105.055026, 39.651992], [-105.057165, 39.651986], [-105.05715, 39.652946], [-105.058031, 39.652959], [-105.058059, 39.651251], [-105.062002, 39.65124], [-105.061999, 39.651515], [-105.062598, 39.651513], [-105.062626, 39.650267], [-105.0639, 39.650295], [-105.063924, 39.649566], [-105.070833, 39.649579], [-105.07083, 39.649999], [-105.069917, 39.649991], [-105.069121, 39.651301], [-105.068206, 39.652188], [-105.068057, 39.652188], [-105.068053, 39.65249], [-105.06749, 39.652491], [-105.067477, 39.653321], [-105.067278, 39.653319], [-105.067288, 39.656879], [-105.070144, 39.656874], [-105.070016, 39.659071], [-105.071971, 39.659604], [-105.071973, 39.660024], [-105.076676, 39.659312], [-105.076677, 39.659887], [-105.078158, 39.660759], [-105.079163, 39.662041], [-105.081453, 39.662056], [-105.081348, 39.670133], [-105.079183, 39.669738], [-105.079212, 39.669339], [-105.07667, 39.669061], [-105.076664, 39.669413], [-105.075986, 39.669307], [-105.075889, 39.669991], [-105.075306, 39.670058], [-105.074951, 39.670485], [-105.07271, 39.669742], [-105.072546, 39.669423], [-105.071997, 39.669344], [-105.071991, 39.667763], [-105.053256, 39.667785], [-105.053251, 39.675037], [-105.062622, 39.675008], [-105.06262, 39.67928], [-105.061422, 39.678258], [-105.061005, 39.678041], [-105.060335, 39.677954], [-105.057794, 39.678697], [-105.057797, 39.682272], [-105.053221, 39.682291], [-105.053191, 39.682397], [-105.053227, 39.73311], [-105.054424, 39.733101], [-105.054427, 39.73364], [-105.055013, 39.733724], [-105.055011, 39.7331], [-105.055588, 39.733105], [-105.055591, 39.734508], [-105.055572, 39.734913], [-105.053228, 39.734922], [-105.053183, 39.783797], [-105.062659, 39.783847], [-105.062653, 39.78834], [-105.064992, 39.788359], [-105.065005, 39.790321], [-105.064404, 39.79032], [-105.064405, 39.79108], [-105.062642, 39.791086], [-105.062646, 39.790501], [-105.061786, 39.7905], [-105.06148, 39.791075], [-105.034618, 39.791142], [-105.034645, 39.792051], [-105.029953, 39.792032], [-105.029944, 39.791125], [-105.025262, 39.791106], [-105.025303, 39.793963], [-105.024381, 39.794034], [-105.023448, 39.793454], [-105.022945, 39.793403], [-105.022191, 39.793797], [-105.021843, 39.794461], [-105.021106, 39.79428], [-105.021569, 39.793214], [-105.020554, 39.792941], [-105.020542, 39.791087], [-104.993242, 39.791026], [-104.99324, 39.792042], [-104.990629, 39.792047], [-104.990263, 39.791518], [-104.990263, 39.791031], [-104.986386, 39.791037], [-104.986358, 39.791871], [-104.985781, 39.79187], [-104.985782, 39.791665], [-104.985181, 39.791667], [-104.985185, 39.791038], [-104.978274, 39.791043], [-104.978271, 39.791874], [-104.977722, 39.791876], [-104.977724, 39.791042], [-104.97595, 39.791038], [-104.975951, 39.792422], [-104.973065, 39.792418], [-104.973057, 39.794114], [-104.974676, 39.794125], [-104.974667, 39.795608], [-104.97116, 39.795567], [-104.971157, 39.796144], [-104.971656, 39.796148], [-104.971644, 39.798291], [-104.968716, 39.798396], [-104.968773, 39.793215], [-104.967523, 39.793269], [-104.967936, 39.791831], [-104.968316, 39.791832], [-104.968863, 39.791317], [-104.968861, 39.791041], [-104.96019, 39.791025], [-104.955445, 39.794625], [-104.940476, 39.794601], [-104.940487, 39.791002], [-104.927034, 39.791054], [-104.927002, 39.783778], [-104.903438, 39.783808], [-104.903561, 39.798391], [-104.901405, 39.798383], [-104.901416, 39.800202], [-104.899069, 39.800202], [-104.899069, 39.798374], [-104.884474, 39.798322], [-104.884405, 39.812815], [-104.866074, 39.812847], [-104.866041, 39.798386], [-104.849342, 39.798347], [-104.845527, 39.798192], [-104.829286, 39.798054], [-104.827716, 39.798213], [-104.813987, 39.7983], [-104.790895, 39.798251], [-104.791054, 39.810462], [-104.790708, 39.827214], [-104.790859, 39.841802], [-104.762317, 39.841788], [-104.762279, 39.84539], [-104.730953, 39.845195], [-104.73039, 39.896131], [-104.703311, 39.895949], [-104.703185, 39.906926], [-104.692139, 39.906851], [-104.692054, 39.914178], [-104.679582, 39.914016], [-104.679664, 39.907008], [-104.630939, 39.906645], [-104.630945, 39.899291], [-104.620759, 39.899328], [-104.599581, 39.899038], [-104.59981, 39.881307], [-104.605154, 39.881346], [-104.605261, 39.873114], [-104.619152, 39.87322], [-104.619799, 39.822417], [-104.65539, 39.822605], [-104.655445, 39.812999], [-104.666182, 39.813075], [-104.666062, 39.822791], [-104.762462, 39.823443], [-104.762592, 39.820164], [-104.762646, 39.801589], [-104.762841, 39.800014], [-104.762606, 39.798433], [-104.734399, 39.798442], [-104.734601, 39.769181], [-104.753442, 39.769302], [-104.764574, 39.769188], [-104.764559, 39.771568], [-104.772166, 39.7715], [-104.772157, 39.776409], [-104.78156, 39.776483], [-104.781577, 39.772795], [-104.828185, 39.772784], [-104.828173, 39.769156], [-104.833009, 39.769177], [-104.832972, 39.766391], [-104.835253, 39.766881], [-104.837614, 39.767169], [-104.856394, 39.768581], [-104.856338, 39.758127], [-104.85552, 39.757796], [-104.855016, 39.757926], [-104.854862, 39.757844], [-104.854351, 39.758062], [-104.853489, 39.75762], [-104.852036, 39.757313], [-104.850786, 39.756743], [-104.848208, 39.756419], [-104.848002, 39.755449], [-104.847716, 39.75524], [-104.846916, 39.755241], [-104.84694, 39.754687], [-104.879901, 39.754735], [-104.879971, 39.747438], [-104.884664, 39.747467], [-104.884711, 39.73093], [-104.885248, 39.730086], [-104.886613, 39.729219], [-104.884732, 39.727887], [-104.881934, 39.72496], [-104.88117, 39.725341], [-104.87999, 39.725604], [-104.87533, 39.725576], [-104.875277, 39.718805], [-104.874947, 39.71845], [-104.87432, 39.718201], [-104.870596, 39.718176], [-104.870625, 39.710174], [-104.865971, 39.711053], [-104.865967, 39.703807], [-104.868662, 39.703008], [-104.869426, 39.701319], [-104.869393, 39.701089], [-104.870648, 39.700535], [-104.870662, 39.698377], [-104.868301, 39.698371], [-104.868309, 39.700192], [-104.867136, 39.700188], [-104.867133, 39.69928], [-104.865964, 39.699279], [-104.865962, 39.696559], [-104.875309, 39.696505], [-104.875318, 39.698438], [-104.877728, 39.698438], [-104.87772, 39.696508], [-104.894099, 39.696596], [-104.894092, 39.695868], [-104.894766, 39.69587], [-104.894766, 39.696597], [-104.896814, 39.696588], [-104.899099, 39.695395], [-104.899426, 39.695748], [-104.899642, 39.69576], [-104.900379, 39.69655], [-104.899757, 39.69715], [-104.903544, 39.698535], [-104.903507, 39.696622], [-104.900115, 39.692985], [-104.903511, 39.69297], [-104.903512, 39.689354], [-104.89881, 39.689341], [-104.898784, 39.690702], [-104.898128, 39.690697], [-104.898796, 39.691387], [-104.898801, 39.692975], [-104.894176, 39.69296], [-104.894058, 39.685694], [-104.889328, 39.685684], [-104.889308, 39.682056], [-104.894046, 39.682061], [-104.894058, 39.678448], [-104.90344, 39.678598], [-104.903443, 39.684857], [-104.905223, 39.686058], [-104.905191, 39.683862], [-104.904597, 39.683868], [-104.904591, 39.680318], [-104.908096, 39.680306], [-104.908094, 39.679726], [-104.906982, 39.679737], [-104.906984, 39.678796], [-104.905056, 39.678032], [-104.903579, 39.676675], [-104.903509, 39.667624], [-104.894024, 39.667589], [-104.890204, 39.66451], [-104.888352, 39.665674], [-104.88904, 39.665775], [-104.889668, 39.666285], [-104.890458, 39.667578], [-104.885164, 39.667566], [-104.879525, 39.663927], [-104.876211, 39.663932], [-104.875793, 39.664305], [-104.875543, 39.664888], [-104.87538, 39.668651], [-104.876355, 39.671095], [-104.877459, 39.672066], [-104.875312, 39.672062], [-104.875291, 39.674766], [-104.870882, 39.674764], [-104.866051, 39.670847], [-104.866203, 39.661762], [-104.866334, 39.660309], [-104.856441, 39.66034], [-104.855894, 39.660482], [-104.855437, 39.660804], [-104.853367, 39.65998], [-104.848678, 39.659218], [-104.8486, 39.657096], [-104.847296, 39.657102], [-104.848621, 39.656595], [-104.852312, 39.655768], [-104.85405, 39.65515], [-104.868196, 39.647068], [-104.870048, 39.646284], [-104.871188, 39.646229], [-104.872921, 39.645854], [-104.875573, 39.64499], [-104.875454, 39.651466], [-104.877, 39.65305], [-104.88014, 39.653057], [-104.880086, 39.650773], [-104.880313, 39.645902], [-104.880332, 39.64131], [-104.88512, 39.638948], [-104.885264, 39.624129], [-104.913407, 39.624083], [-104.913227, 39.638669], [-104.92246, 39.645849], [-104.931873, 39.645826], [-104.931703, 39.653044], [-104.954983, 39.652987], [-104.954375, 39.655886], [-104.953541, 39.655957], [-104.953788, 39.656683], [-104.959485, 39.656691], [-104.959443, 39.661526], [-104.96307, 39.661559], [-104.963084, 39.660371], [-104.968785, 39.660417], [-104.968805, 39.665839], [-104.973489, 39.665866], [-104.973486, 39.667684], [-105.000355, 39.667728], [-105.003578, 39.666611], [-105.003969, 39.666255], [-105.00407, 39.665527], [-105.004886, 39.663685], [-105.00484, 39.661672], [-105.004626, 39.660802], [-105.004395, 39.660484], [-105.010941, 39.660507], [-105.007752, 39.664605], [-105.006321, 39.6677], [-105.006357, 39.676759], [-105.008637, 39.67678], [-105.008664, 39.678627], [-105.015696, 39.678684], [-105.0158, 39.660508], [-105.022982, 39.660496], [-105.023003, 39.656804], [-105.033076, 39.656954], [-105.032393, 39.656506], [-105.032089, 39.655905], [-105.032162, 39.653276], [-105.034615, 39.653276], [-105.03466, 39.643711], [-105.032729, 39.643674], [-105.032797, 39.642808], [-105.02998, 39.642819], [-105.029927, 39.640176], [-105.029998, 39.638575], [-105.034707, 39.638593], [-105.034756, 39.633177], [-105.030059, 39.633183], [-105.029656, 39.632367], [-105.028895, 39.632343], [-105.026942, 39.631563], [-105.02536, 39.631445], [-105.025422, 39.628558], [-105.027179, 39.628412], [-105.02932, 39.627792], [-105.031101, 39.627791], [-105.03342, 39.628179], [-105.034821, 39.628176], [-105.034822, 39.627809], [-105.035813, 39.627838], [-105.036802, 39.628129], [-105.038005, 39.626836], [-105.040062, 39.628061], [-105.040279, 39.627758], [-105.040654, 39.628009], [-105.040936, 39.627749], [-105.041356, 39.628026], [-105.041744, 39.627672], [-105.042301, 39.628036], [-105.042807, 39.627579], [-105.044161, 39.628039], [-105.044139, 39.631456], [-105.05341, 39.631504], [-105.053342, 39.63877], [-105.059045, 39.63876], [-105.059138, 39.638243], [-105.058996, 39.638177], [-105.059541, 39.635375], [-105.059297, 39.634333], [-105.057009, 39.631679], [-105.053457, 39.629526], [-105.05344, 39.627714], [-105.05578, 39.625998], [-105.055809, 39.624244], [-105.053483, 39.624253], [-105.053516, 39.620864], [-105.054338, 39.620824], [-105.056273, 39.621104], [-105.05724, 39.620914], [-105.057386, 39.620492], [-105.056489, 39.619918], [-105.05712, 39.619368], [-105.058193, 39.617366], [-105.058125, 39.614409], [-105.09701, 39.614311], [-105.097029, 39.618362], [-105.087252, 39.618317], [-105.084297, 39.618584], [-105.065141, 39.618582], [-105.065091, 39.620045], [-105.065662, 39.6206], [-105.076116, 39.624225], [-105.074517, 39.624227], [-105.076273, 39.625095], [-105.080232, 39.629461], [-105.080952, 39.631327], [-105.083712, 39.631327], [-105.083735, 39.630155], [-105.081693, 39.630149], [-105.08173, 39.627313], [-105.083813, 39.627318], [-105.083789, 39.628527], [-105.08558, 39.628527], [-105.085626, 39.626107], [-105.087391, 39.626046], [-105.087384, 39.62709], [-105.091164, 39.627081], [-105.091256, 39.624198], [-105.107503, 39.624218], [-105.107496, 39.627093], [-105.109924, 39.62716]], [[-105.081605, 39.635002], [-105.08087, 39.635001], [-105.08087, 39.635683], [-105.081573, 39.635688], [-105.081605, 39.635002]], [[-105.064997, 39.653774], [-105.064988, 39.653331], [-105.06389, 39.653333], [-105.063898, 39.65378], [-105.064997, 39.653774]], [[-105.06356, 39.651859], [-105.062589, 39.651854], [-105.06256, 39.652991], [-105.063539, 39.652979], [-105.06356, 39.651859]], [[-104.940684, 39.711076], [-104.940729, 39.697724], [-104.94, 39.697723], [-104.94, 39.697921], [-104.938538, 39.697928], [-104.93853, 39.696605], [-104.940612, 39.69657], [-104.940625, 39.6954], [-104.939498, 39.695405], [-104.939505, 39.694762], [-104.936213, 39.694782], [-104.936233, 39.696599], [-104.93645, 39.696601], [-104.936457, 39.697853], [-104.935858, 39.697854], [-104.935868, 39.696599], [-104.928183, 39.696634], [-104.928185, 39.698428], [-104.928778, 39.698427], [-104.928778, 39.70022], [-104.932831, 39.700286], [-104.932873, 39.701321], [-104.934143, 39.70132], [-104.934171, 39.703771], [-104.933189, 39.703768], [-104.932842, 39.703615], [-104.932869, 39.702048], [-104.931712, 39.702057], [-104.931705, 39.703858], [-104.926991, 39.703857], [-104.926963, 39.706699], [-104.929118, 39.706787], [-104.929119, 39.70641], [-104.92959, 39.706414], [-104.92958, 39.708587], [-104.93157, 39.709096], [-104.931648, 39.711098], [-104.940684, 39.711076]], [[-104.933885, 39.673347], [-104.933878, 39.671192], [-104.933031, 39.671193], [-104.933028, 39.670555], [-104.931695, 39.670564], [-104.931622, 39.667473], [-104.930436, 39.667471], [-104.930497, 39.668485], [-104.929256, 39.668481], [-104.929257, 39.66938], [-104.928073, 39.669374], [-104.928081, 39.668966], [-104.927201, 39.668965], [-104.929651, 39.672382], [-104.93078, 39.672387], [-104.930776, 39.672809], [-104.931633, 39.672808], [-104.931641, 39.673374], [-104.933885, 39.673347]], [[-104.930242, 39.674832], [-104.926429, 39.669394], [-104.924941, 39.669304], [-104.925086, 39.668977], [-104.924712, 39.668429], [-104.922669, 39.667843], [-104.92266, 39.667578], [-104.921277, 39.667579], [-104.921425, 39.66776], [-104.920702, 39.668168], [-104.920572, 39.668035], [-104.921008, 39.667778], [-104.920307, 39.667115], [-104.920579, 39.666935], [-104.922221, 39.666947], [-104.92224, 39.66376], [-104.921547, 39.662847], [-104.921572, 39.662552], [-104.921866, 39.662249], [-104.921016, 39.660338], [-104.918875, 39.660338], [-104.918885, 39.659921], [-104.918614, 39.659922], [-104.918247, 39.659347], [-104.917893, 39.659149], [-104.917812, 39.659314], [-104.916757, 39.65901], [-104.916863, 39.658795], [-104.915898, 39.658508], [-104.916253, 39.658088], [-104.916031, 39.657508], [-104.915513, 39.657519], [-104.915513, 39.657136], [-104.915896, 39.657149], [-104.916572, 39.656119], [-104.915863, 39.656048], [-104.915771, 39.65635], [-104.91525, 39.656173], [-104.912985, 39.656209], [-104.91297, 39.663133], [-104.915039, 39.66314], [-104.915939, 39.663471], [-104.91595, 39.666152], [-104.916389, 39.666154], [-104.916378, 39.667585], [-104.917544, 39.66758], [-104.917559, 39.672983], [-104.919298, 39.673917], [-104.920487, 39.674141], [-104.92105, 39.674562], [-104.921047, 39.674836], [-104.92225, 39.674833], [-104.922253, 39.675616], [-104.922353, 39.675665], [-104.922866, 39.675704], [-104.923414, 39.675475], [-104.92343, 39.676645], [-104.924465, 39.676648], [-104.924464, 39.676207], [-104.924759, 39.676153], [-104.924754, 39.676353], [-104.925283, 39.676353], [-104.925286, 39.676641], [-104.925746, 39.676641], [-104.925725, 39.675281], [-104.927582, 39.675273], [-104.927576, 39.674826], [-104.930242, 39.674832]], [[-104.929313, 39.701272], [-104.928766, 39.70128], [-104.928299, 39.701274], [-104.929182, 39.702043], [-104.92931, 39.702037], [-104.929313, 39.701272]], [[-104.91104, 39.679887], [-104.908203, 39.679883], [-104.908205, 39.68207], [-104.911032, 39.682073], [-104.91104, 39.679887]], [[-104.904032, 39.624116], [-104.902904, 39.624181], [-104.902796, 39.624304], [-104.903285, 39.625954], [-104.903787, 39.626828], [-104.903917, 39.626829], [-104.904049, 39.625436], [-104.904032, 39.624116]], [[-104.902671, 39.685712], [-104.899347, 39.683737], [-104.898783, 39.683402], [-104.898786, 39.685704], [-104.902671, 39.685712]]]]}}