{"type": "Feature", "properties": {"key": "englewood", "name": "Englewood"}, "geometry": {"type": "Polygon", "coordinates": [[[-105.034955, 39.624161], [-105.034821, 39.628176], [-105.033121, 39.628163], [-105.031101, 39.627791], [-105.02932, 39.627792], [-105.027179, 39.628412], [-105.025422, 39.628558], [-105.025361, 39.630358], [-105.02536, 39.631445], [-105.026942, 39.631563], [-105.028895, 39.632343], [-105.029656, 39.632367], [-105.030059, 39.633183], [-105.034756, 39.633177], [-105.034739, 39.635023], [-105.030043, 39.635012], [-105.030044, 39.635178], [-105.027968, 39.635183], [-105.027966, 39.636011], [-105.025384, 39.63601], [-105.025391, 39.635395], [-105.024017, 39.63628], [-105.023593, 39.63671], [-105.023887, 39.63595], [-105.023449, 39.635016], [-105.018352, 39.635044], [-105.018365, 39.631833], [-105.016459, 39.631819], [-105.015682, 39.631528], [-105.014512, 39.632019], [-105.014771, 39.63269], [-105.014844, 39.633481], [-105.013906, 39.633556], [-105.013116, 39.632195], [-105.011344, 39.632407], [-105.010593, 39.632329], [-105.010092, 39.634294], [-105.008152, 39.634236], [-105.006958, 39.638613], [-105.006102, 39.638639], [-105.004976, 39.64224], [-105.004137, 39.644064], [-105.000681, 39.652901], [-105.000246, 39.652901], [-105.000229, 39.653192], [-105.002936, 39.653207], [-105.002938, 39.654138], [-105.002407, 39.654139], [-105.002411, 39.653335], [-105.001945, 39.653328], [-105.001205, 39.655061], [-105.001731, 39.655199], [-105.001726, 39.656067], [-105.003188, 39.656072], [-105.003679, 39.655543], [-105.006124, 39.655576], [-105.005708, 39.65626], [-105.005153, 39.656814], [-105.015832, 39.656919], [-105.015696, 39.678684], [-105.008664, 39.678627], [-105.008637, 39.67678], [-105.006357, 39.676759], [-105.006321, 39.6677], [-105.007752, 39.664605], [-105.010941, 39.660507], [-105.004395, 39.660484], [-105.004626, 39.660802], [-105.00484, 39.661672], [-105.004886, 39.663685], [-105.00407, 39.665527], [-105.003969, 39.666255], [-105.003578, 39.666611], [-105.000355, 39.667728], [-104.973486, 39.667684], [-104.973489, 39.665866], [-104.968805, 39.665839], [-104.968785, 39.660417], [-104.963084, 39.660371], [-104.96307, 39.661559], [-104.959443, 39.661526], [-104.959426, 39.65304], [-104.960394, 39.653214], [-104.971204, 39.653122], [-104.971234, 39.651322], [-104.978289, 39.651261], [-104.978633, 39.624072], [-104.985909, 39.624051], [-104.985812, 39.622396], [-104.986309, 39.621608], [-104.985506, 39.621269], [-104.984444, 39.62023], [-104.983864, 39.619975], [-104.983781, 39.618971], [-104.980916, 39.617396], [-104.980436, 39.617375], [-104.980437, 39.616842], [-104.988028, 39.616835], [-104.988019, 39.619847], [-104.990049, 39.619848], [-104.990051, 39.620427], [-104.992535, 39.620951], [-104.992642, 39.621724], [-104.993628, 39.621918], [-104.993833, 39.62223], [-104.995003, 39.622235], [-104.994987, 39.624038], [-105.000965, 39.624106], [-105.000779, 39.622945], [-104.999826, 39.621642], [-104.999761, 39.62049], [-105.006761, 39.620517], [-105.006685, 39.629067], [-105.009437, 39.629082], [-105.013821, 39.629394], [-105.014037, 39.629072], [-105.014053, 39.625739], [-105.016096, 39.625755], [-105.016065, 39.627734], [-105.02311, 39.627736], [-105.023112, 39.624127], [-105.034955, 39.624161]]]}}