{"type": "Feature", "properties": {"key": "greeley", "name": "Greeley"}, "geometry": {"type": "Polygon", "coordinates": [[[-104.907501, 40.392382], [-104.907291, 40.407311], [-104.907075, 40.40731], [-104.907026, 40.42155], [-104.897781, 40.421508], [-104.88823, 40.421165], [-104.883678, 40.421258], [-104.883783, 40.417667], [-104.879152, 40.417674], [-104.879083, 40.421293], [-104.874487, 40.421293], [-104.874583, 40.414064], [-104.870107, 40.414064], [-104.870102, 40.421088], [-104.867816, 40.421055], [-104.866933, 40.420419], [-104.866923, 40.421016], [-104.866014, 40.421028], [-104.865636, 40.421188], [-104.865591, 40.421408], [-104.860423, 40.421307], [-104.857713, 40.437246], [-104.858362, 40.439972], [-104.858052, 40.440282], [-104.850892, 40.440122], [-104.850087, 40.435459], [-104.849193, 40.435495], [-104.849214, 40.435801], [-104.84804, 40.435543], [-104.841066, 40.435832], [-104.837578, 40.436183], [-104.837577, 40.437451], [-104.836739, 40.437488], [-104.836452, 40.437868], [-104.83289, 40.437883], [-104.832856, 40.441269], [-104.835259, 40.441282], [-104.83524, 40.44342], [-104.832633, 40.443418], [-104.832584, 40.450799], [-104.831844, 40.450822], [-104.831845, 40.45788], [-104.837287, 40.457862], [-104.83734, 40.453357], [-104.837525, 40.452486], [-104.837309, 40.452354], [-104.837337, 40.450697], [-104.841955, 40.450698], [-104.841913, 40.461486], [-104.837183, 40.461465], [-104.837204, 40.458007], [-104.830926, 40.458081], [-104.83093, 40.462086], [-104.828069, 40.461508], [-104.828056, 40.458039], [-104.831598, 40.457881], [-104.831661, 40.450633], [-104.832288, 40.450633], [-104.832376, 40.444359], [-104.831437, 40.4447], [-104.830937, 40.445225], [-104.83075, 40.446238], [-104.83105, 40.4472], [-104.830812, 40.4477], [-104.8301, 40.44815], [-104.829412, 40.448375], [-104.826637, 40.448438], [-104.826012, 40.448238], [-104.82555, 40.447813], [-104.825262, 40.4472], [-104.8247, 40.446875], [-104.823987, 40.44695], [-104.823062, 40.447463], [-104.822575, 40.447488], [-104.821762, 40.447388], [-104.821016, 40.446983], [-104.820575, 40.446935], [-104.819725, 40.446975], [-104.819075, 40.447325], [-104.818362, 40.4473], [-104.818125, 40.44675], [-104.817812, 40.446625], [-104.815806, 40.446281], [-104.8147, 40.446719], [-104.813531, 40.446813], [-104.812381, 40.445831], [-104.811472, 40.445325], [-104.81141, 40.445049], [-104.811122, 40.445113], [-104.810412, 40.444268], [-104.809909, 40.443975], [-104.809547, 40.443075], [-104.807834, 40.442088], [-104.807134, 40.441863], [-104.806046, 40.441779], [-104.805497, 40.441925], [-104.804963, 40.443434], [-104.803606, 40.444743], [-104.80288, 40.445063], [-104.80252, 40.444916], [-104.802425, 40.444598], [-104.802775, 40.4434], [-104.802572, 40.4431], [-104.802234, 40.443025], [-104.801472, 40.4429], [-104.799303, 40.443277], [-104.797247, 40.444105], [-104.797238, 40.446809], [-104.797043, 40.447634], [-104.796641, 40.447716], [-104.794524, 40.447081], [-104.793308, 40.44624], [-104.792624, 40.446081], [-104.790391, 40.445958], [-104.78933, 40.445533], [-104.787517, 40.443935], [-104.787509, 40.444713], [-104.782875, 40.448372], [-104.78285, 40.453178], [-104.773489, 40.453304], [-104.773481, 40.459457], [-104.768573, 40.459423], [-104.768545, 40.466598], [-104.778115, 40.46654], [-104.778126, 40.473851], [-104.768468, 40.473869], [-104.76843, 40.481003], [-104.763636, 40.480978], [-104.763701, 40.473786], [-104.753972, 40.47388], [-104.753981, 40.472049], [-104.749312, 40.472029], [-104.749345, 40.466689], [-104.744548, 40.466662], [-104.744598, 40.477898], [-104.743892, 40.477382], [-104.742447, 40.477388], [-104.740507, 40.477946], [-104.7397, 40.476382], [-104.739688, 40.47562], [-104.734886, 40.475649], [-104.734788, 40.473834], [-104.738267, 40.473831], [-104.737851, 40.473342], [-104.737566, 40.473371], [-104.737036, 40.473087], [-104.736966, 40.472665], [-104.737288, 40.472358], [-104.738297, 40.473374], [-104.738921, 40.471419], [-104.739008, 40.466573], [-104.740257, 40.466575], [-104.739727, 40.466172], [-104.739255, 40.46484], [-104.738325, 40.46374], [-104.73711, 40.462976], [-104.735019, 40.462446], [-104.735011, 40.46228], [-104.737212, 40.462828], [-104.738287, 40.463478], [-104.739173, 40.464358], [-104.73956, 40.464988], [-104.739815, 40.465875], [-104.740393, 40.46641], [-104.744544, 40.466504], [-104.74452, 40.45935], [-104.744399, 40.455776], [-104.744278, 40.455724], [-104.738897, 40.455519], [-104.726929, 40.452902], [-104.716321, 40.452145], [-104.710483, 40.45203], [-104.710468, 40.454556], [-104.70614, 40.454538], [-104.706215, 40.459277], [-104.701512, 40.459241], [-104.701422, 40.452061], [-104.696716, 40.452039], [-104.696752, 40.458651], [-104.695783, 40.458624], [-104.695254, 40.45579], [-104.695279, 40.451948], [-104.693657, 40.451845], [-104.692431, 40.445281], [-104.69087, 40.445232], [-104.691059, 40.446077], [-104.687176, 40.445804], [-104.687171, 40.444984], [-104.68387, 40.444674], [-104.68291, 40.445013], [-104.682229, 40.443796], [-104.680516, 40.443817], [-104.680515, 40.440586], [-104.680222, 40.439868], [-104.679852, 40.437467], [-104.680909, 40.437337], [-104.681697, 40.436368], [-104.682561, 40.436421], [-104.68266, 40.434167], [-104.685783, 40.434304], [-104.685963, 40.432673], [-104.685867, 40.432342], [-104.685629, 40.432014], [-104.684414, 40.431225], [-104.682879, 40.43125], [-104.682239, 40.431139], [-104.681968, 40.43095], [-104.681851, 40.430319], [-104.682688, 40.428643], [-104.679413, 40.428874], [-104.679297, 40.428595], [-104.680819, 40.428443], [-104.680833, 40.428182], [-104.680884, 40.428371], [-104.68136, 40.428374], [-104.681314, 40.428096], [-104.680841, 40.428096], [-104.680896, 40.42748], [-104.680451, 40.427431], [-104.679758, 40.42764], [-104.677901, 40.428753], [-104.677289, 40.428602], [-104.676999, 40.428158], [-104.677025, 40.42744], [-104.67766, 40.426483], [-104.673236, 40.426494], [-104.67324, 40.428446], [-104.670863, 40.428446], [-104.670875, 40.42677], [-104.671231, 40.426776], [-104.671234, 40.426499], [-104.672478, 40.426495], [-104.672415, 40.42546], [-104.669611, 40.425679], [-104.669579, 40.426497], [-104.66847, 40.426505], [-104.668464, 40.428439], [-104.662732, 40.428405], [-104.662786, 40.425256], [-104.651671, 40.423618], [-104.649393, 40.42345], [-104.649336, 40.427627], [-104.651107, 40.428481], [-104.651153, 40.428659], [-104.652082, 40.429142], [-104.652069, 40.42957], [-104.652383, 40.4297], [-104.653324, 40.429735], [-104.653831, 40.429615], [-104.654147, 40.429724], [-104.656333, 40.429739], [-104.656229, 40.435412], [-104.642106, 40.435246], [-104.642149, 40.432697], [-104.633625, 40.430901], [-104.634386, 40.445972], [-104.635007, 40.44597], [-104.635037, 40.449647], [-104.634577, 40.449667], [-104.635064, 40.459407], [-104.629714, 40.459576], [-104.629094, 40.446073], [-104.625576, 40.446075], [-104.625547, 40.438801], [-104.621232, 40.438773], [-104.621266, 40.42838], [-104.619411, 40.428004], [-104.620665, 40.424693], [-104.620877, 40.424699], [-104.62087, 40.425268], [-104.625752, 40.42325], [-104.625827, 40.421004], [-104.635225, 40.421164], [-104.636837, 40.421698], [-104.638597, 40.42193], [-104.639794, 40.421306], [-104.640055, 40.421317], [-104.640031, 40.422342], [-104.640368, 40.422522], [-104.641053, 40.422532], [-104.64144, 40.421502], [-104.64114, 40.421202], [-104.642496, 40.421146], [-104.642485, 40.421368], [-104.643569, 40.421562], [-104.644811, 40.421385], [-104.644884, 40.420991], [-104.649199, 40.421586], [-104.649517, 40.421571], [-104.649548, 40.421024], [-104.664019, 40.421046], [-104.665176, 40.422342], [-104.665986, 40.422844], [-104.666722, 40.42294], [-104.669843, 40.422455], [-104.670075, 40.4225], [-104.67007, 40.42294], [-104.670856, 40.422943], [-104.67086, 40.421844], [-104.670508, 40.421849], [-104.670878, 40.420203], [-104.670815, 40.415522], [-104.672043, 40.415513], [-104.672036, 40.41372], [-104.673269, 40.41372], [-104.673207, 40.408272], [-104.668619, 40.408277], [-104.668629, 40.406536], [-104.663682, 40.406518], [-104.663649, 40.402817], [-104.66613, 40.402816], [-104.665862, 40.402241], [-104.664399, 40.401046], [-104.662635, 40.399298], [-104.660106, 40.39933], [-104.658978, 40.399677], [-104.658972, 40.400288], [-104.65883, 40.400291], [-104.658834, 40.399398], [-104.658438, 40.399242], [-104.649437, 40.399317], [-104.649428, 40.395581], [-104.649675, 40.395581], [-104.6519, 40.394136], [-104.663702, 40.393809], [-104.663713, 40.394555], [-104.662184, 40.39451], [-104.662055, 40.394389], [-104.660504, 40.395327], [-104.662682, 40.395534], [-104.668313, 40.395524], [-104.668353, 40.394391], [-104.668869, 40.394093], [-104.669819, 40.393873], [-104.673097, 40.394097], [-104.673122, 40.393706], [-104.674043, 40.393704], [-104.67404, 40.391954], [-104.670523, 40.391945], [-104.668939, 40.391576], [-104.668339, 40.390164], [-104.668356, 40.38466], [-104.688121, 40.384729], [-104.684075, 40.391837], [-104.683749, 40.39184], [-104.683367, 40.393515], [-104.685812, 40.393532], [-104.685686, 40.395178], [-104.684245, 40.395166], [-104.684238, 40.395748], [-104.685941, 40.395757], [-104.685925, 40.397138], [-104.692042, 40.397166], [-104.692055, 40.396068], [-104.691985, 40.39593], [-104.691294, 40.395925], [-104.6913, 40.395517], [-104.69295, 40.395466], [-104.692887, 40.393332], [-104.6939, 40.393337], [-104.693909, 40.392513], [-104.692898, 40.392504], [-104.69289, 40.39187], [-104.692397, 40.391865], [-104.692412, 40.390919], [-104.692601, 40.390773], [-104.696454, 40.391701], [-104.696923, 40.391702], [-104.696921, 40.391825], [-104.699283, 40.391835], [-104.69926, 40.390102], [-104.697458, 40.390102], [-104.697449, 40.389686], [-104.697082, 40.389693], [-104.69711, 40.388851], [-104.701641, 40.388847], [-104.701614, 40.388025], [-104.69737, 40.388012], [-104.697372, 40.38771], [-104.697084, 40.387708], [-104.697082, 40.386826], [-104.697441, 40.386823], [-104.69735, 40.386117], [-104.700294, 40.386156], [-104.700195, 40.385874], [-104.701624, 40.385856], [-104.701614, 40.384673], [-104.72055, 40.384895], [-104.720547, 40.384756], [-104.732495, 40.384782], [-104.732494, 40.385133], [-104.733926, 40.386215], [-104.734015, 40.38653], [-104.734754, 40.386531], [-104.734754, 40.385444], [-104.733611, 40.385432], [-104.733614, 40.385136], [-104.734767, 40.385132], [-104.734869, 40.384678], [-104.736867, 40.384667], [-104.736871, 40.385227], [-104.740573, 40.387395], [-104.742714, 40.38772], [-104.74672, 40.38804], [-104.746722, 40.385165], [-104.756016, 40.385043], [-104.77503, 40.38507], [-104.775027, 40.38465], [-104.775785, 40.385023], [-104.784379, 40.385037], [-104.784341, 40.380175], [-104.786215, 40.380182], [-104.788485, 40.381105], [-104.789127, 40.381101], [-104.790262, 40.381711], [-104.791098, 40.381528], [-104.794005, 40.381955], [-104.79396, 40.377672], [-104.832093, 40.377693], [-104.832192, 40.392025], [-104.841557, 40.392055], [-104.841389, 40.377753], [-104.869822, 40.37783], [-104.86998, 40.377917], [-104.870043, 40.379015], [-104.871384, 40.379017], [-104.871394, 40.377917], [-104.878993, 40.377927], [-104.878989, 40.385124], [-104.888195, 40.385216], [-104.888121, 40.392434], [-104.907501, 40.392382]], [[-104.899617, 40.407013], [-104.897823, 40.407016], [-104.897807, 40.41127], [-104.899601, 40.411276], [-104.899617, 40.407013]], [[-104.869619, 40.399643], [-104.869597, 40.392485], [-104.850918, 40.392283], [-104.850949, 40.405678], [-104.860394, 40.405779], [-104.860321, 40.399598], [-104.869619, 40.399643]], [[-104.822417, 40.428942], [-104.812521, 40.429007], [-104.813001, 40.425253], [-104.803479, 40.425196], [-104.802971, 40.429124], [-104.800825, 40.429148], [-104.801837, 40.432569], [-104.800603, 40.432561], [-104.80058, 40.434866], [-104.796991, 40.435685], [-104.796966, 40.440899], [-104.801945, 40.440819], [-104.801931, 40.437218], [-104.811626, 40.437038], [-104.819813, 40.4367], [-104.82003, 40.433612], [-104.817067, 40.433506], [-104.817174, 40.432363], [-104.815394, 40.432336], [-104.820024, 40.432285], [-104.82001, 40.430747], [-104.822287, 40.430737], [-104.822417, 40.428942]], [[-104.814132, 40.425156], [-104.813126, 40.42515], [-104.813122, 40.425562], [-104.814127, 40.425568], [-104.814132, 40.425156]], [[-104.788753, 40.440864], [-104.788736, 40.437347], [-104.773731, 40.437441], [-104.773562, 40.437447], [-104.773526, 40.437589], [-104.773546, 40.441343], [-104.774299, 40.441541], [-104.776145, 40.441122], [-104.776807, 40.441107], [-104.777406, 40.440387], [-104.777915, 40.44018], [-104.778394, 40.439644], [-104.778743, 40.439584], [-104.780875, 40.439646], [-104.781471, 40.440303], [-104.782506, 40.440985], [-104.782917, 40.441064], [-104.782883, 40.447349], [-104.78155, 40.447283], [-104.780514, 40.446871], [-104.779945, 40.446805], [-104.77925, 40.447015], [-104.778979, 40.447242], [-104.778511, 40.447923], [-104.778124, 40.448152], [-104.778126, 40.448499], [-104.782852, 40.448403], [-104.78287, 40.448359], [-104.787488, 40.444706], [-104.787503, 40.441035], [-104.788753, 40.440864]], [[-104.773297, 40.45212], [-104.77329, 40.448566], [-104.767474, 40.448504], [-104.76748, 40.449128], [-104.763758, 40.448376], [-104.762652, 40.448418], [-104.762588, 40.452064], [-104.773297, 40.45212]], [[-104.773252, 40.4375], [-104.754435, 40.437237], [-104.74882, 40.437289], [-104.748662, 40.436971], [-104.74471, 40.436015], [-104.74468, 40.441045], [-104.753724, 40.440998], [-104.753721, 40.441937], [-104.754367, 40.441933], [-104.754374, 40.440992], [-104.759149, 40.44094], [-104.759131, 40.444807], [-104.760997, 40.444007], [-104.762128, 40.444231], [-104.762631, 40.444544], [-104.762709, 40.444808], [-104.76243, 40.446026], [-104.761809, 40.446711], [-104.76207, 40.44739], [-104.76267, 40.447789], [-104.76379, 40.448141], [-104.765246, 40.448382], [-104.76572, 40.448588], [-104.766796, 40.44854], [-104.767495, 40.448331], [-104.768261, 40.447819], [-104.768445, 40.44745], [-104.766565, 40.446134], [-104.766185, 40.445503], [-104.765614, 40.445002], [-104.765335, 40.44435], [-104.765313, 40.44334], [-104.765457, 40.442844], [-104.764712, 40.440809], [-104.765024, 40.440474], [-104.76611, 40.440164], [-104.76611, 40.439971], [-104.764919, 40.440372], [-104.764908, 40.439156], [-104.766649, 40.439148], [-104.768729, 40.43883], [-104.768721, 40.439381], [-104.770307, 40.440076], [-104.770809, 40.440542], [-104.773057, 40.441199], [-104.77315, 40.437663], [-104.773252, 40.4375]], [[-104.759101, 40.448477], [-104.759099, 40.447332], [-104.737944, 40.442479], [-104.737929, 40.441209], [-104.730262, 40.441178], [-104.734879, 40.442242], [-104.734755, 40.450767], [-104.730151, 40.450715], [-104.73015, 40.452102], [-104.725603, 40.452055], [-104.725577, 40.450249], [-104.724872, 40.450009], [-104.723704, 40.450097], [-104.722559, 40.449975], [-104.7212, 40.449357], [-104.721375, 40.447963], [-104.720894, 40.444556], [-104.720791, 40.442518], [-104.725461, 40.442529], [-104.725449, 40.441176], [-104.721158, 40.441178], [-104.721117, 40.438842], [-104.721117, 40.438555], [-104.725433, 40.439547], [-104.725426, 40.437479], [-104.715858, 40.43757], [-104.711192, 40.436444], [-104.711186, 40.435075], [-104.711078, 40.435041], [-104.70877, 40.434885], [-104.70875, 40.435741], [-104.706336, 40.435176], [-104.706283, 40.438421], [-104.706889, 40.438641], [-104.707759, 40.439439], [-104.708412, 40.441352], [-104.705183, 40.441356], [-104.70499, 40.441624], [-104.703589, 40.441941], [-104.701538, 40.444034], [-104.700249, 40.44456], [-104.699677, 40.444365], [-104.699434, 40.443752], [-104.700312, 40.442155], [-104.699518, 40.441744], [-104.69896, 40.441876], [-104.698965, 40.442416], [-104.698421, 40.442414], [-104.698422, 40.442909], [-104.699546, 40.442899], [-104.699151, 40.443724], [-104.699499, 40.444648], [-104.698899, 40.444659], [-104.699129, 40.445085], [-104.699143, 40.445546], [-104.704483, 40.445592], [-104.704567, 40.446649], [-104.70184, 40.447995], [-104.702743, 40.44894], [-104.704475, 40.449125], [-104.705477, 40.450157], [-104.715056, 40.450233], [-104.715165, 40.451915], [-104.72743, 40.452805], [-104.729824, 40.453447], [-104.734125, 40.454254], [-104.737166, 40.455005], [-104.737146, 40.452148], [-104.754351, 40.452063], [-104.754371, 40.448476], [-104.759101, 40.448477]], [[-104.732408, 40.440106], [-104.730145, 40.440103], [-104.730141, 40.440628], [-104.73179, 40.441012], [-104.732405, 40.441014], [-104.732408, 40.440106]], [[-104.696547, 40.446369], [-104.695106, 40.446304], [-104.69435, 40.447788], [-104.696562, 40.447836], [-104.696547, 40.446369]], [[-104.693505, 40.445456], [-104.693579, 40.444862], [-104.693254, 40.444867], [-104.693499, 40.446156], [-104.694005, 40.44614], [-104.693505, 40.445456]], [[-104.68864, 40.43728], [-104.688199, 40.436572], [-104.686285, 40.435327], [-104.685814, 40.434779], [-104.685767, 40.434526], [-104.685, 40.434492], [-104.684965, 40.43657], [-104.685264, 40.436589], [-104.685246, 40.43901], [-104.68703, 40.438872], [-104.687005, 40.440103], [-104.685647, 40.440095], [-104.685652, 40.43985], [-104.685422, 40.439841], [-104.685417, 40.440091], [-104.685184, 40.440087], [-104.685167, 40.441045], [-104.686883, 40.441051], [-104.686911, 40.440377], [-104.68811, 40.440458], [-104.687871, 40.44033], [-104.68787, 40.43937], [-104.68862, 40.438244], [-104.68864, 40.43728]], [[-104.677994, 40.410086], [-104.676747, 40.410048], [-104.676762, 40.409423], [-104.677988, 40.409424], [-104.677986, 40.40918], [-104.675607, 40.409175], [-104.675612, 40.408263], [-104.67439, 40.408268], [-104.674399, 40.410019], [-104.674887, 40.41002], [-104.674877, 40.410942], [-104.676769, 40.410851], [-104.676751, 40.412712], [-104.677965, 40.412755], [-104.677994, 40.410086]], [[-104.67283, 40.425195], [-104.672777, 40.424705], [-104.671929, 40.424787], [-104.671868, 40.424953], [-104.671907, 40.42523], [-104.672043, 40.42528], [-104.67283, 40.425195]], [[-104.660063, 40.399186], [-104.658975, 40.399189], [-104.658974, 40.399554], [-104.65973, 40.399354], [-104.660063, 40.399186]], [[-104.658893, 40.39555], [-104.658227, 40.39555], [-104.658113, 40.396523], [-104.657823, 40.397122], [-104.657343, 40.397738], [-104.656479, 40.398395], [-104.656518, 40.399105], [-104.658861, 40.399149], [-104.658893, 40.39555]], [[-104.654567, 40.422512], [-104.652372, 40.422243], [-104.652672, 40.422811], [-104.652571, 40.4235], [-104.65436, 40.423752], [-104.654567, 40.422512]], [[-104.778126, 40.448499], [-104.773485, 40.448555], [-104.773489, 40.45329], [-104.782838, 40.453167], [-104.782844, 40.452064], [-104.78157, 40.452], [-104.781548, 40.451407], [-104.778768, 40.450853], [-104.778137, 40.451096], [-104.778624, 40.450824], [-104.778138, 40.450727], [-104.778126, 40.448499]]]}}