{"type": "Feature", "properties": {"key": "lakewood", "name": "Lakewood"}, "geometry": {"type": "Polygon", "coordinates": [[[-105.199906, 39.701885], [-105.1993, 39.702083], [-105.199386, 39.702658], [-105.199015, 39.703677], [-105.192726, 39.703767], [-105.192576, 39.704585], [-105.191217, 39.70563], [-105.191268, 39.709837], [-105.190751, 39.710213], [-105.190824, 39.711171], [-105.183757, 39.711368], [-105.174795, 39.711105], [-105.174816, 39.712936], [-105.165497, 39.71296], [-105.165512, 39.71121], [-105.161094, 39.711147], [-105.161089, 39.711435], [-105.160897, 39.711432], [-105.160884, 39.711924], [-105.160238, 39.711902], [-105.16067, 39.711749], [-105.160685, 39.711429], [-105.157709, 39.711376], [-105.157714, 39.711115], [-105.154366, 39.711073], [-105.154036, 39.72471], [-105.159745, 39.72472], [-105.160896, 39.724275], [-105.164023, 39.724284], [-105.16414, 39.724442], [-105.163281, 39.724643], [-105.164961, 39.724575], [-105.16532, 39.724312], [-105.165317, 39.723994], [-105.16566, 39.724006], [-105.16562, 39.726307], [-105.166078, 39.726079], [-105.166712, 39.726073], [-105.166689, 39.727336], [-105.166136, 39.727346], [-105.166138, 39.727764], [-105.166702, 39.727769], [-105.166703, 39.728109], [-105.166115, 39.728104], [-105.166114, 39.728382], [-105.166704, 39.728392], [-105.166703, 39.728666], [-105.167852, 39.728805], [-105.167925, 39.729081], [-105.16845, 39.72917], [-105.168446, 39.729481], [-105.169037, 39.729485], [-105.168976, 39.731184], [-105.168788, 39.731345], [-105.169018, 39.731417], [-105.169034, 39.731621], [-105.168113, 39.732628], [-105.16813, 39.731497], [-105.166644, 39.731854], [-105.16665, 39.732774], [-105.167911, 39.732782], [-105.164948, 39.735163], [-105.165507, 39.735593], [-105.16546, 39.737527], [-105.166617, 39.737528], [-105.166579, 39.740184], [-105.165553, 39.740188], [-105.162843, 39.740688], [-105.161043, 39.741314], [-105.162321, 39.743148], [-105.163021, 39.742753], [-105.163594, 39.741826], [-105.163748, 39.741801], [-105.163212, 39.742788], [-105.162414, 39.743286], [-105.163327, 39.744871], [-105.164977, 39.744211], [-105.165446, 39.743837], [-105.165438, 39.747248], [-105.156482, 39.747316], [-105.15649, 39.745898], [-105.156928, 39.745633], [-105.155588, 39.744633], [-105.152955, 39.74711], [-105.152314, 39.747347], [-105.151082, 39.747329], [-105.152282, 39.745856], [-105.149995, 39.744239], [-105.149914, 39.743444], [-105.151525, 39.742951], [-105.151311, 39.742583], [-105.151298, 39.742145], [-105.151899, 39.741055], [-105.151214, 39.740594], [-105.151576, 39.740282], [-105.151547, 39.740124], [-105.150812, 39.739648], [-105.151344, 39.7394], [-105.151291, 39.738694], [-105.153579, 39.738436], [-105.15291, 39.735206], [-105.152898, 39.735098], [-105.153065, 39.735077], [-105.152934, 39.734282], [-105.147086, 39.735604], [-105.147049, 39.732779], [-105.149358, 39.732777], [-105.149353, 39.733417], [-105.149948, 39.733419], [-105.14995, 39.732781], [-105.152977, 39.732777], [-105.152947, 39.732226], [-105.154062, 39.732141], [-105.154104, 39.730921], [-105.154897, 39.73092], [-105.15489, 39.730019], [-105.155155, 39.730021], [-105.155151, 39.729096], [-105.162329, 39.729122], [-105.162314, 39.728797], [-105.161678, 39.728796], [-105.161739, 39.72732], [-105.159745, 39.727329], [-105.159389, 39.72749], [-105.159008, 39.727337], [-105.158244, 39.727334], [-105.15825, 39.726405], [-105.157278, 39.726405], [-105.157273, 39.727328], [-105.156445, 39.727324], [-105.156447, 39.725646], [-105.152924, 39.725647], [-105.152927, 39.729123], [-105.137717, 39.729123], [-105.137694, 39.736303], [-105.133613, 39.736341], [-105.133617, 39.736848], [-105.132932, 39.736841], [-105.132888, 39.740135], [-105.13709, 39.740146], [-105.139395, 39.739967], [-105.139375, 39.738202], [-105.140731, 39.737603], [-105.141504, 39.737419], [-105.141513, 39.739729], [-105.147096, 39.739195], [-105.146733, 39.739503], [-105.145657, 39.739511], [-105.144871, 39.739728], [-105.143832, 39.740636], [-105.142421, 39.741477], [-105.142334, 39.741679], [-105.142459, 39.758224], [-105.133082, 39.758255], [-105.133064, 39.761876], [-105.114347, 39.761942], [-105.115149, 39.761718], [-105.115284, 39.761454], [-105.115113, 39.76118], [-105.114536, 39.760806], [-105.114579, 39.760708], [-105.115148, 39.760383], [-105.116123, 39.760169], [-105.116898, 39.759471], [-105.116883, 39.759015], [-105.119403, 39.758766], [-105.118968, 39.758283], [-105.118973, 39.754678], [-105.07201, 39.754796], [-105.072012, 39.753022], [-105.07437, 39.753021], [-105.074374, 39.75216], [-105.073219, 39.752166], [-105.073213, 39.751883], [-105.073947, 39.751884], [-105.073931, 39.751263], [-105.074348, 39.751258], [-105.074335, 39.74756], [-105.063861, 39.747625], [-105.063841, 39.746777], [-105.063542, 39.746627], [-105.06259, 39.746612], [-105.062595, 39.746499], [-105.061359, 39.746359], [-105.061372, 39.746184], [-105.062596, 39.746186], [-105.062582, 39.745173], [-105.061945, 39.745115], [-105.061918, 39.744354], [-105.06258, 39.744358], [-105.062576, 39.743952], [-105.060812, 39.743958], [-105.0608, 39.74487], [-105.061485, 39.744904], [-105.061733, 39.745166], [-105.060224, 39.745167], [-105.060233, 39.747644], [-105.059082, 39.747648], [-105.059082, 39.747415], [-105.057893, 39.747279], [-105.057894, 39.743977], [-105.053843, 39.74398], [-105.053842, 39.743276], [-105.05321, 39.743273], [-105.053228, 39.734922], [-105.055572, 39.734913], [-105.055591, 39.734508], [-105.055588, 39.733105], [-105.055011, 39.7331], [-105.055013, 39.733724], [-105.054427, 39.73364], [-105.054424, 39.733101], [-105.053227, 39.73311], [-105.053191, 39.682397], [-105.053221, 39.682291], [-105.057797, 39.682272], [-105.057794, 39.678697], [-105.060335, 39.677954], [-105.061005, 39.678041], [-105.061422, 39.678258], [-105.06262, 39.67928], [-105.062622, 39.675008], [-105.053251, 39.675037], [-105.053256, 39.667785], [-105.071991, 39.667763], [-105.071997, 39.669344], [-105.072546, 39.669423], [-105.07271, 39.669742], [-105.074951, 39.670485], [-105.075306, 39.670058], [-105.075889, 39.669991], [-105.075986, 39.669307], [-105.076664, 39.669413], [-105.07667, 39.669061], [-105.079212, 39.669339], [-105.079183, 39.669738], [-105.081348, 39.670133], [-105.081434, 39.669103], [-105.081453, 39.662056], [-105.079163, 39.662041], [-105.078158, 39.660759], [-105.076677, 39.659887], [-105.076676, 39.659312], [-105.071973, 39.660024], [-105.071971, 39.659604], [-105.070016, 39.659071], [-105.070144, 39.656874], [-105.067288, 39.656879], [-105.067283, 39.653503], [-105.070335, 39.653255], [-105.076656, 39.653231], [-105.076662, 39.652644], [-105.071929, 39.652453], [-105.071948, 39.649581], [-105.063197, 39.649655], [-105.063223, 39.645992], [-105.072045, 39.645984], [-105.072093, 39.645647], [-105.072326, 39.64535], [-105.073816, 39.644628], [-105.074454, 39.644104], [-105.07576, 39.64205], [-105.075897, 39.64118], [-105.076773, 39.639353], [-105.076803, 39.638735], [-105.073271, 39.63874], [-105.073307, 39.636563], [-105.074176, 39.636752], [-105.075222, 39.636515], [-105.077147, 39.636413], [-105.07945, 39.636727], [-105.07995, 39.636643], [-105.080299, 39.636209], [-105.081565, 39.636166], [-105.081541, 39.636721], [-105.081716, 39.636867], [-105.081578, 39.638667], [-105.081676, 39.638759], [-105.085844, 39.6387], [-105.085815, 39.639476], [-105.08629, 39.639477], [-105.086133, 39.650072], [-105.081398, 39.649868], [-105.081338, 39.652863], [-105.081099, 39.65285], [-105.081093, 39.653274], [-105.087358, 39.653211], [-105.090112, 39.653695], [-105.095424, 39.653922], [-105.095428, 39.653584], [-105.105774, 39.653538], [-105.108807, 39.654216], [-105.108805, 39.655514], [-105.109374, 39.655531], [-105.109314, 39.653096], [-105.109422, 39.653096], [-105.109509, 39.649373], [-105.109426, 39.647035], [-105.109325, 39.647035], [-105.109458, 39.639048], [-105.109325, 39.638787], [-105.109002, 39.638705], [-105.109004, 39.638535], [-105.109537, 39.638505], [-105.109555, 39.635071], [-105.109875, 39.635072], [-105.109924, 39.627085], [-105.109617, 39.627083], [-105.109631, 39.62422], [-105.091256, 39.624198], [-105.091089, 39.625437], [-105.09067, 39.626375], [-105.090166, 39.627085], [-105.088626, 39.627087], [-105.08863, 39.625751], [-105.087323, 39.625982], [-105.081734, 39.626107], [-105.08178, 39.631325], [-105.081567, 39.631328], [-105.081581, 39.630086], [-105.080478, 39.630094], [-105.080232, 39.629461], [-105.076273, 39.625095], [-105.074517, 39.624227], [-105.076116, 39.624225], [-105.065662, 39.6206], [-105.065091, 39.620045], [-105.065141, 39.618582], [-105.084297, 39.618584], [-105.087252, 39.618317], [-105.093172, 39.618324], [-105.093065, 39.618525], [-105.093083, 39.620467], [-105.093243, 39.624034], [-105.109949, 39.624038], [-105.109945, 39.624224], [-105.110339, 39.624218], [-105.110321, 39.62605], [-105.110199, 39.62605], [-105.110165, 39.635081], [-105.110019, 39.635076], [-105.110016, 39.635647], [-105.110256, 39.635648], [-105.110257, 39.638439], [-105.110782, 39.63853], [-105.11078, 39.63886], [-105.110246, 39.638907], [-105.110121, 39.644031], [-105.110256, 39.644321], [-105.110111, 39.644442], [-105.109985, 39.65007], [-105.109885, 39.650338], [-105.109752, 39.65033], [-105.109667, 39.653189], [-105.115896, 39.65319], [-105.11725, 39.652905], [-105.118588, 39.652353], [-105.125283, 39.647744], [-105.126177, 39.646603], [-105.127682, 39.64606], [-105.133485, 39.641824], [-105.136411, 39.639926], [-105.137952, 39.639275], [-105.137962, 39.638881], [-105.137572, 39.638882], [-105.137429, 39.638772], [-105.13749, 39.638565], [-105.152261, 39.638559], [-105.154269, 39.638312], [-105.154666, 39.638144], [-105.160681, 39.637521], [-105.163247, 39.636338], [-105.164531, 39.635531], [-105.164172, 39.635225], [-105.1634, 39.635024], [-105.161715, 39.63491], [-105.161579, 39.634604], [-105.163516, 39.634536], [-105.165246, 39.634985], [-105.169927, 39.638088], [-105.170438, 39.638764], [-105.17156, 39.63982], [-105.179004, 39.645564], [-105.179794, 39.646834], [-105.179796, 39.649149], [-105.180048, 39.649322], [-105.1818, 39.649316], [-105.181919, 39.649457], [-105.180331, 39.649457], [-105.180222, 39.652039], [-105.179145, 39.652376], [-105.179153, 39.652933], [-105.179699, 39.652929], [-105.179708, 39.653458], [-105.178924, 39.653545], [-105.176307, 39.652867], [-105.176157, 39.65324], [-105.175714, 39.653078], [-105.174832, 39.653076], [-105.171255, 39.653584], [-105.171275, 39.654545], [-105.172446, 39.654549], [-105.172472, 39.655093], [-105.17442, 39.656344], [-105.173889, 39.657847], [-105.176908, 39.658525], [-105.176907, 39.659078], [-105.173387, 39.659106], [-105.172501, 39.657708], [-105.173213, 39.65666], [-105.171783, 39.655789], [-105.169781, 39.655335], [-105.167583, 39.654514], [-105.165572, 39.657227], [-105.162373, 39.660281], [-105.165569, 39.660299], [-105.165653, 39.667548], [-105.172353, 39.667431], [-105.172381, 39.663904], [-105.184657, 39.663734], [-105.184744, 39.667386], [-105.187464, 39.667391], [-105.187845, 39.668238], [-105.187839, 39.669347], [-105.188853, 39.673334], [-105.189405, 39.674632], [-105.18942, 39.676475], [-105.188423, 39.67648], [-105.189583, 39.679231], [-105.190631, 39.680673], [-105.190725, 39.681859], [-105.182785, 39.681902], [-105.182743, 39.689135], [-105.184893, 39.689112], [-105.184588, 39.692752], [-105.194008, 39.69268], [-105.193596, 39.696944], [-105.19727, 39.69579], [-105.198229, 39.699117], [-105.197836, 39.699169], [-105.198091, 39.700508], [-105.19933, 39.700334], [-105.199906, 39.701885]], [[-105.166401, 39.641502], [-105.165656, 39.6415], [-105.165672, 39.638922], [-105.164127, 39.638758], [-105.162094, 39.639857], [-105.161806, 39.640207], [-105.16142, 39.645322], [-105.161282, 39.645485], [-105.165111, 39.645487], [-105.165108, 39.645354], [-105.165636, 39.645358], [-105.165652, 39.642843], [-105.166392, 39.642849], [-105.166401, 39.641502]], [[-105.16546, 39.737624], [-105.164753, 39.737033], [-105.164348, 39.737068], [-105.163585, 39.737593], [-105.163511, 39.73811], [-105.163862, 39.738095], [-105.164317, 39.739003], [-105.164741, 39.738768], [-105.165458, 39.738854], [-105.16546, 39.737624]], [[-105.163746, 39.740276], [-105.163592, 39.739026], [-105.161632, 39.738838], [-105.160354, 39.740314], [-105.160625, 39.740814], [-105.161055, 39.741149], [-105.162189, 39.740682], [-105.163517, 39.740422], [-105.163746, 39.740276]], [[-105.16202, 39.743205], [-105.160856, 39.741576], [-105.159781, 39.741885], [-105.157939, 39.742924], [-105.160287, 39.744876], [-105.160823, 39.74449], [-105.161332, 39.743603], [-105.16202, 39.743205]], [[-105.157593, 39.739254], [-105.157305, 39.738772], [-105.156858, 39.739127], [-105.156563, 39.739523], [-105.156244, 39.74039], [-105.155783, 39.740886], [-105.156531, 39.74148], [-105.158246, 39.739743], [-105.157593, 39.739254]], [[-105.147213, 39.667559], [-105.142947, 39.668099], [-105.139746, 39.668296], [-105.138261, 39.668063], [-105.136143, 39.667952], [-105.133057, 39.666913], [-105.132441, 39.667081], [-105.131928, 39.666892], [-105.129585, 39.66589], [-105.128343, 39.664964], [-105.126717, 39.66453], [-105.126067, 39.663923], [-105.125209, 39.66388], [-105.123719, 39.664028], [-105.122415, 39.66441], [-105.121124, 39.664477], [-105.11562, 39.66671], [-105.114381, 39.667363], [-105.114383, 39.668109], [-105.11556, 39.669701], [-105.11789, 39.671849], [-105.118977, 39.673117], [-105.119069, 39.674333], [-105.119291, 39.674888], [-105.147163, 39.674805], [-105.147213, 39.667559]], [[-105.131424, 39.653425], [-105.131124, 39.652968], [-105.130108, 39.653247], [-105.129053, 39.653345], [-105.125026, 39.653157], [-105.118957, 39.653155], [-105.118976, 39.660192], [-105.120481, 39.659719], [-105.120912, 39.659116], [-105.121987, 39.658766], [-105.124438, 39.658332], [-105.124518, 39.656922], [-105.124958, 39.656449], [-105.126351, 39.656336], [-105.12752, 39.656439], [-105.128613, 39.656207], [-105.129278, 39.655591], [-105.129547, 39.655696], [-105.129967, 39.655311], [-105.130808, 39.654889], [-105.130907, 39.654444], [-105.131301, 39.65449], [-105.131424, 39.653425]], [[-105.128651, 39.68586], [-105.12848, 39.682114], [-105.122236, 39.682107], [-105.121346, 39.682443], [-105.120645, 39.6841], [-105.120558, 39.686606], [-105.120376, 39.687287], [-105.118357, 39.689272], [-105.121644, 39.69058], [-105.122052, 39.690632], [-105.122054, 39.691774], [-105.120855, 39.691825], [-105.119028, 39.691304], [-105.118834, 39.691619], [-105.119854, 39.6926], [-105.120172, 39.694009], [-105.120149, 39.694475], [-105.119525, 39.695271], [-105.117973, 39.695674], [-105.117975, 39.696499], [-105.121041, 39.696387], [-105.122286, 39.696492], [-105.128518, 39.696461], [-105.128651, 39.68586]], [[-105.122328, 39.663895], [-105.122063, 39.663417], [-105.122298, 39.66323], [-105.12045, 39.660012], [-105.119675, 39.660985], [-105.118988, 39.66209], [-105.118987, 39.66233], [-105.116495, 39.662321], [-105.116493, 39.662596], [-105.117418, 39.66331], [-105.117669, 39.663347], [-105.118277, 39.66414], [-105.118418, 39.665384], [-105.122328, 39.663895]], [[-105.120276, 39.681963], [-105.120184, 39.67867], [-105.119854, 39.676212], [-105.120026, 39.681961], [-105.120276, 39.681963]], [[-105.118876, 39.660427], [-105.118531, 39.660428], [-105.118557, 39.661025], [-105.118908, 39.661019], [-105.118876, 39.660427]], [[-105.092931, 39.622812], [-105.092918, 39.621577], [-105.091568, 39.621553], [-105.091555, 39.62281], [-105.092931, 39.622812]], [[-105.081419, 39.682233], [-105.081437, 39.676358], [-105.069894, 39.676318], [-105.069702, 39.682207], [-105.079057, 39.682218], [-105.079712, 39.681699], [-105.080345, 39.681912], [-105.080292, 39.682233], [-105.081419, 39.682233]]]}}