{"type": "Feature", "properties": {"key": "littleton", "name": "Littleton"}, "geometry": {"type": "MultiPolygon", "coordinates": [[[[-105.058786, 39.568229], [-105.057333, 39.569829], [-105.057157, 39.569829], [-105.056241, 39.571516], [-105.054076, 39.570812], [-105.054049, 39.572654], [-105.054164, 39.572677], [-105.054176, 39.572183], [-105.054634, 39.572333], [-105.054702, 39.572207], [-105.056411, 39.571979], [-105.055843, 39.572557], [-105.05538, 39.573313], [-105.054762, 39.57317], [-105.054573, 39.573519], [-105.055178, 39.573688], [-105.054735, 39.574509], [-105.051119, 39.575927], [-105.051094, 39.577074], [-105.05338, 39.577084], [-105.048979, 39.586092], [-105.046229, 39.586048], [-105.046199, 39.588934], [-105.044329, 39.588923], [-105.044331, 39.589765], [-105.044082, 39.589765], [-105.043585, 39.589484], [-105.041684, 39.589476], [-105.041768, 39.587901], [-105.037564, 39.587902], [-105.037519, 39.591521], [-105.030479, 39.591514], [-105.030461, 39.595144], [-105.030165, 39.595144], [-105.029709, 39.595472], [-105.029714, 39.596546], [-105.029161, 39.596968], [-105.028, 39.596906], [-105.026863, 39.597537], [-105.026171, 39.598135], [-105.025752, 39.598725], [-105.02574, 39.59982], [-105.024938, 39.601108], [-105.024637, 39.601897], [-105.024549, 39.60236], [-105.024737, 39.603636], [-105.024606, 39.604181], [-105.027984, 39.60421], [-105.02799, 39.606178], [-105.029324, 39.606311], [-105.028953, 39.606522], [-105.028362, 39.607403], [-105.02887, 39.610092], [-105.030042, 39.610233], [-105.030758, 39.611312], [-105.034988, 39.609689], [-105.035004, 39.607882], [-105.03847, 39.607942], [-105.037698, 39.60948], [-105.038952, 39.609478], [-105.038985, 39.608955], [-105.039663, 39.608958], [-105.03974, 39.606623], [-105.041281, 39.606627], [-105.041304, 39.606032], [-105.04857, 39.606082], [-105.048629, 39.60077], [-105.053716, 39.600819], [-105.053655, 39.615549], [-105.053105, 39.615878], [-105.050241, 39.615394], [-105.048526, 39.61548], [-105.048486, 39.615646], [-105.046768, 39.615436], [-105.04643, 39.614682], [-105.044992, 39.615028], [-105.044955, 39.616078], [-105.04576, 39.616374], [-105.045822, 39.616948], [-105.044239, 39.616941], [-105.0444, 39.617567], [-105.044161, 39.628039], [-105.042807, 39.627579], [-105.042301, 39.628036], [-105.041744, 39.627672], [-105.041356, 39.628026], [-105.040936, 39.627749], [-105.040654, 39.628009], [-105.040279, 39.627758], [-105.040062, 39.628061], [-105.038005, 39.626836], [-105.036802, 39.628129], [-105.035962, 39.627851], [-105.034822, 39.627809], [-105.034955, 39.624161], [-105.023112, 39.624127], [-105.02311, 39.627736], [-105.016065, 39.627734], [-105.016096, 39.625755], [-105.014053, 39.625739], [-105.014037, 39.629072], [-105.013821, 39.629394], [-105.009437, 39.629082], [-105.006685, 39.629067], [-105.006761, 39.620517], [-104.999761, 39.62049], [-104.999826, 39.621642], [-105.000779, 39.622945], [-105.000965, 39.624106], [-104.994987, 39.624038], [-104.995003, 39.622235], [-104.993833, 39.62223], [-104.993628, 39.621918], [-104.992642, 39.621724], [-104.992535, 39.620951], [-104.990051, 39.620427], [-104.990049, 39.619848], [-104.988019, 39.619847], [-104.988028, 39.616835], [-104.978655, 39.616839], [-104.978697, 39.613196], [-104.983366, 39.613186], [-104.983368, 39.612308], [-104.985678, 39.61231], [-104.985699, 39.609593], [-104.986282, 39.609592], [-104.986356, 39.604295], [-104.986904, 39.604296], [-104.986909, 39.603886], [-104.98734, 39.603886], [-104.987352, 39.603506], [-104.98817, 39.603514], [-104.98818, 39.602295], [-104.987429, 39.602356], [-104.98703, 39.602181], [-104.987034, 39.601811], [-104.987496, 39.601788], [-104.987485, 39.601461], [-104.987599, 39.601462], [-104.987607, 39.601787], [-104.988184, 39.601793], [-104.988187, 39.601385], [-104.986469, 39.601309], [-104.985156, 39.600761], [-104.985579, 39.600259], [-104.986157, 39.598984], [-104.988216, 39.598973], [-104.988289, 39.59511], [-104.986417, 39.595099], [-104.986434, 39.593967], [-104.988271, 39.594547], [-104.988311, 39.589687], [-104.986926, 39.589685], [-104.986924, 39.589327], [-104.986932, 39.589001], [-104.988326, 39.588988], [-104.98834, 39.584243], [-104.978991, 39.584193], [-104.979069, 39.574924], [-104.978258, 39.574149], [-104.976674, 39.573533], [-104.975582, 39.572728], [-104.975504, 39.572481], [-104.975647, 39.572165], [-104.975848, 39.572328], [-104.979098, 39.57278], [-104.979123, 39.5696], [-104.977118, 39.569515], [-104.974919, 39.568126], [-104.974085, 39.567851], [-104.973246, 39.56777], [-104.973255, 39.566069], [-104.977449, 39.566083], [-104.977414, 39.567416], [-104.97595, 39.568517], [-104.977244, 39.569347], [-104.979126, 39.569421], [-104.979187, 39.566091], [-104.993299, 39.566135], [-104.996013, 39.565585], [-104.998854, 39.56475], [-104.999187, 39.564956], [-104.998918, 39.564731], [-105.000323, 39.564421], [-105.002339, 39.564288], [-105.003727, 39.564377], [-105.00373, 39.563319], [-105.000793, 39.563191], [-104.998754, 39.56181], [-105.006774, 39.561812], [-105.006816, 39.564177], [-105.007555, 39.564208], [-105.007545, 39.564685], [-105.00961, 39.564904], [-105.015621, 39.566096], [-105.021377, 39.566147], [-105.021521, 39.564328], [-105.022249, 39.563947], [-105.022855, 39.563258], [-105.031221, 39.563552], [-105.030359, 39.566187], [-105.033185, 39.566186], [-105.033585, 39.565272], [-105.035976, 39.565255], [-105.038919, 39.565774], [-105.039073, 39.565863], [-105.038944, 39.566], [-105.035936, 39.566189], [-105.039633, 39.566189], [-105.044349, 39.568846], [-105.058793, 39.567188], [-105.058786, 39.568229]], [[-105.044688, 39.577062], [-105.044533, 39.577062], [-105.043948, 39.577677], [-105.043636, 39.578517], [-105.04352, 39.579372], [-105.043043, 39.58026], [-105.043275, 39.580694], [-105.043168, 39.580401], [-105.043797, 39.579319], [-105.043848, 39.578496], [-105.044688, 39.577062]], [[-105.043898, 39.608939], [-105.04318, 39.608939], [-105.043175, 39.609622], [-105.043889, 39.609621], [-105.043898, 39.608939]], [[-105.006169, 39.564386], [-105.005396, 39.564001], [-105.005134, 39.564307], [-105.006169, 39.564386]]], [[[-105.11101, 39.536173], [-105.111007, 39.547146], [-105.102827, 39.54716], [-105.101693, 39.544528], [-105.101069, 39.542609], [-105.096969, 39.541715], [-105.095792, 39.541719], [-105.09462, 39.541268], [-105.094015, 39.540359], [-105.092839, 39.5399], [-105.092855, 39.539471], [-105.094393, 39.53627], [-105.11101, 39.536173]]]]}}