{"type": "Feature", "properties": {"key": "parker", "name": "Parker"}, "geometry": {"type": "Polygon", "coordinates": [[[-104.830105, 39.550903], [-104.830116, 39.55517], [-104.826733, 39.556211], [-104.823508, 39.556902], [-104.822999, 39.557933], [-104.819918, 39.55702], [-104.819644, 39.55868], [-104.819164, 39.559183], [-104.81929, 39.559242], [-104.819215, 39.559401], [-104.820355, 39.559778], [-104.8215, 39.559769], [-104.821485, 39.561239], [-104.818814, 39.561167], [-104.818404, 39.561499], [-104.817831, 39.561675], [-104.817829, 39.564242], [-104.820141, 39.564237], [-104.820146, 39.562668], [-104.821471, 39.562675], [-104.821488, 39.565988], [-104.816514, 39.565988], [-104.816527, 39.564245], [-104.815649, 39.564245], [-104.815689, 39.564402], [-104.815537, 39.564435], [-104.815696, 39.564537], [-104.815686, 39.565988], [-104.806902, 39.565953], [-104.80686, 39.565059], [-104.80648, 39.563415], [-104.805588, 39.562612], [-104.805847, 39.561211], [-104.808053, 39.560576], [-104.807275, 39.559677], [-104.806787, 39.558674], [-104.802785, 39.558681], [-104.802766, 39.558883], [-104.802556, 39.558486], [-104.80127, 39.558102], [-104.800368, 39.55826], [-104.799439, 39.558718], [-104.801091, 39.559489], [-104.800432, 39.559796], [-104.800801, 39.560337], [-104.800627, 39.560416], [-104.801024, 39.561005], [-104.801142, 39.561002], [-104.80114, 39.561742], [-104.800715, 39.561772], [-104.798867, 39.562567], [-104.801414, 39.565948], [-104.793085, 39.565985], [-104.784585, 39.565942], [-104.783439, 39.564109], [-104.782175, 39.562499], [-104.779425, 39.562831], [-104.779342, 39.561493], [-104.777071, 39.561411], [-104.777214, 39.563084], [-104.77441, 39.56344], [-104.774429, 39.561092], [-104.773382, 39.561171], [-104.772216, 39.56106], [-104.769522, 39.560236], [-104.7687, 39.559714], [-104.768173, 39.558818], [-104.764814, 39.55882], [-104.764463, 39.557254], [-104.765789, 39.557005], [-104.765401, 39.555127], [-104.765395, 39.555276], [-104.764536, 39.554904], [-104.765036, 39.554358], [-104.764667, 39.554078], [-104.76509, 39.55364], [-104.765089, 39.548754], [-104.762819, 39.549426], [-104.762332, 39.549214], [-104.761803, 39.549388], [-104.761117, 39.548296], [-104.761093, 39.547224], [-104.761904, 39.545767], [-104.761943, 39.544338], [-104.764419, 39.54437], [-104.764445, 39.540511], [-104.764805, 39.540602], [-104.764771, 39.540708], [-104.767888, 39.541199], [-104.767906, 39.54096], [-104.76815, 39.540977], [-104.768128, 39.539923], [-104.767398, 39.53948], [-104.765921, 39.539073], [-104.76547, 39.539075], [-104.764235, 39.538148], [-104.761679, 39.537371], [-104.760745, 39.537304], [-104.760226, 39.537086], [-104.76022, 39.536945], [-104.756019, 39.53696], [-104.755959, 39.536592], [-104.755537, 39.536592], [-104.75554, 39.536252], [-104.755959, 39.536252], [-104.75596, 39.536027], [-104.756304, 39.536256], [-104.76051, 39.536275], [-104.763515, 39.536932], [-104.766483, 39.536939], [-104.766482, 39.536518], [-104.766788, 39.536423], [-104.766868, 39.536231], [-104.766864, 39.535372], [-104.766748, 39.535292], [-104.766928, 39.534943], [-104.765977, 39.53465], [-104.765947, 39.534204], [-104.764736, 39.534354], [-104.764482, 39.532583], [-104.765323, 39.532555], [-104.764653, 39.528509], [-104.764208, 39.528549], [-104.763845, 39.526164], [-104.764303, 39.52611], [-104.764188, 39.525347], [-104.763923, 39.524832], [-104.76227, 39.52374], [-104.762278, 39.522876], [-104.761802, 39.522876], [-104.761894, 39.522386], [-104.761804, 39.52232], [-104.758288, 39.522288], [-104.75828, 39.525548], [-104.758503, 39.525762], [-104.757647, 39.525977], [-104.755734, 39.525963], [-104.755718, 39.525551], [-104.755499, 39.5254], [-104.755572, 39.522286], [-104.746338, 39.522254], [-104.746353, 39.520915], [-104.743977, 39.520913], [-104.743975, 39.522257], [-104.741602, 39.522262], [-104.741595, 39.520861], [-104.740387, 39.520827], [-104.73948, 39.520617], [-104.738586, 39.521746], [-104.738475, 39.522257], [-104.727499, 39.522322], [-104.718211, 39.522167], [-104.718214, 39.521663], [-104.71851, 39.520876], [-104.719782, 39.519499], [-104.720848, 39.518604], [-104.718182, 39.51868], [-104.718199, 39.514886], [-104.710333, 39.514809], [-104.710345, 39.514184], [-104.709461, 39.514176], [-104.709464, 39.514801], [-104.70848, 39.51478], [-104.708602, 39.507536], [-104.713248, 39.50754], [-104.713379, 39.493018], [-104.718362, 39.49307], [-104.718445, 39.485813], [-104.722899, 39.485802], [-104.725006, 39.487529], [-104.72779, 39.488938], [-104.727794, 39.488654], [-104.72905, 39.489073], [-104.732311, 39.489109], [-104.733435, 39.489364], [-104.734717, 39.489841], [-104.735931, 39.49073], [-104.737072, 39.49112], [-104.73707, 39.491249], [-104.738324, 39.491575], [-104.744288, 39.49226], [-104.746943, 39.492984], [-104.748493, 39.492988], [-104.748745, 39.491868], [-104.748989, 39.491778], [-104.751193, 39.492719], [-104.751348, 39.478421], [-104.756057, 39.478394], [-104.756062, 39.474505], [-104.758751, 39.474954], [-104.758697, 39.473542], [-104.758869, 39.471318], [-104.761077, 39.471321], [-104.761894, 39.470155], [-104.76213, 39.469423], [-104.763914, 39.469177], [-104.763946, 39.467679], [-104.765459, 39.467678], [-104.765465, 39.478442], [-104.772505, 39.478294], [-104.77247, 39.47841], [-104.774578, 39.47841], [-104.774738, 39.477444], [-104.775336, 39.476587], [-104.776922, 39.475553], [-104.779332, 39.474264], [-104.779957, 39.473615], [-104.78004, 39.473508], [-104.778699, 39.47265], [-104.77792, 39.473381], [-104.778159, 39.473533], [-104.775069, 39.474259], [-104.773033, 39.474396], [-104.773024, 39.471326], [-104.774826, 39.471311], [-104.774835, 39.469616], [-104.77735, 39.469625], [-104.777334, 39.46815], [-104.777874, 39.467924], [-104.77887, 39.467802], [-104.779787, 39.468219], [-104.780318, 39.468286], [-104.781065, 39.468075], [-104.781536, 39.468451], [-104.782659, 39.468478], [-104.783414, 39.468708], [-104.784185, 39.467999], [-104.784206, 39.46401], [-104.774852, 39.464012], [-104.774875, 39.456766], [-104.784256, 39.456752], [-104.784257, 39.45307], [-104.793654, 39.453071], [-104.793642, 39.456734], [-104.79583, 39.456728], [-104.796062, 39.456938], [-104.789068, 39.464049], [-104.821787, 39.463882], [-104.821711, 39.476006], [-104.821523, 39.476439], [-104.8215, 39.478269], [-104.812297, 39.478295], [-104.812194, 39.500287], [-104.821577, 39.500184], [-104.821565, 39.502428], [-104.821893, 39.501964], [-104.822851, 39.501215], [-104.823124, 39.500547], [-104.823373, 39.500586], [-104.823097, 39.501281], [-104.822029, 39.502146], [-104.821763, 39.502642], [-104.821566, 39.503494], [-104.821567, 39.507514], [-104.814958, 39.507631], [-104.814915, 39.508267], [-104.814679, 39.508273], [-104.814419, 39.509307], [-104.813232, 39.512289], [-104.813461, 39.517039], [-104.813347, 39.517035], [-104.813301, 39.517505], [-104.812995, 39.517495], [-104.812887, 39.517898], [-104.812656, 39.522202], [-104.793598, 39.522268], [-104.793656, 39.53294], [-104.794735, 39.532473], [-104.79512, 39.531629], [-104.795529, 39.531324], [-104.796177, 39.531292], [-104.79767, 39.531864], [-104.797528, 39.532685], [-104.797664, 39.533346], [-104.795495, 39.533662], [-104.795718, 39.534513], [-104.794984, 39.535617], [-104.793632, 39.535628], [-104.793727, 39.545996], [-104.79361, 39.547622], [-104.793899, 39.547947], [-104.796784, 39.548664], [-104.802056, 39.549701], [-104.807389, 39.551672], [-104.808145, 39.551619], [-104.808577, 39.550246], [-104.810472, 39.550625], [-104.811798, 39.551322], [-104.830105, 39.550903]], [[-104.814267, 39.508421], [-104.812185, 39.508483], [-104.812192, 39.515194], [-104.812611, 39.516381], [-104.812616, 39.516954], [-104.812887, 39.516931], [-104.81303, 39.516743], [-104.81293, 39.512027], [-104.814267, 39.508421]], [[-104.810536, 39.562283], [-104.808676, 39.561078], [-104.807921, 39.564784], [-104.809196, 39.563879], [-104.809057, 39.563794], [-104.810536, 39.562283]], [[-104.807494, 39.507551], [-104.807484, 39.50575], [-104.802811, 39.505731], [-104.802835, 39.507533], [-104.807494, 39.507551]], [[-104.806955, 39.515095], [-104.805202, 39.515078], [-104.805061, 39.518641], [-104.805551, 39.518631], [-104.806955, 39.515095]], [[-104.800298, 39.557795], [-104.797086, 39.556857], [-104.795606, 39.557108], [-104.79602, 39.558812], [-104.797227, 39.560394], [-104.797909, 39.560074], [-104.798716, 39.559361], [-104.799105, 39.558544], [-104.800211, 39.557979], [-104.800298, 39.557795]], [[-104.795347, 39.549957], [-104.793905, 39.549946], [-104.793605, 39.550133], [-104.793635, 39.551421], [-104.796121, 39.551388], [-104.795347, 39.549957]], [[-104.795799, 39.559251], [-104.795484, 39.558563], [-104.795205, 39.55721], [-104.794422, 39.557407], [-104.79411, 39.556155], [-104.793438, 39.556158], [-104.793016, 39.555511], [-104.792676, 39.555375], [-104.792752, 39.555171], [-104.792599, 39.554927], [-104.792445, 39.55502], [-104.791535, 39.556068], [-104.791436, 39.556591], [-104.791217, 39.556738], [-104.792508, 39.557248], [-104.793035, 39.557628], [-104.7939, 39.558696], [-104.79405, 39.559384], [-104.795011, 39.559596], [-104.795799, 39.559251]], [[-104.794229, 39.554191], [-104.793877, 39.553157], [-104.791746, 39.553184], [-104.789057, 39.549113], [-104.787124, 39.548865], [-104.784834, 39.548991], [-104.785025, 39.551016], [-104.786825, 39.554474], [-104.794229, 39.554191]], [[-104.79348, 39.493092], [-104.788764, 39.493135], [-104.788763, 39.495762], [-104.786382, 39.495772], [-104.78639, 39.493174], [-104.784072, 39.493148], [-104.78401, 39.502827], [-104.777592, 39.50283], [-104.777518, 39.505216], [-104.77788, 39.506733], [-104.778123, 39.507038], [-104.779063, 39.507479], [-104.790724, 39.507476], [-104.790736, 39.502912], [-104.793419, 39.502893], [-104.79348, 39.493092]], [[-104.793236, 39.529561], [-104.788185, 39.529557], [-104.78056, 39.529601], [-104.782338, 39.534435], [-104.784355, 39.534221], [-104.78812, 39.534317], [-104.789123, 39.534233], [-104.789072, 39.533972], [-104.78966, 39.533885], [-104.789719, 39.53415], [-104.790296, 39.53407], [-104.790214, 39.533706], [-104.790734, 39.533303], [-104.793201, 39.53257], [-104.793236, 39.529561]], [[-104.792084, 39.53308], [-104.791357, 39.533259], [-104.791186, 39.533508], [-104.79119, 39.533833], [-104.792021, 39.533802], [-104.792084, 39.53308]], [[-104.78995, 39.534386], [-104.787883, 39.534636], [-104.786649, 39.534615], [-104.78648, 39.535467], [-104.786044, 39.535958], [-104.783609, 39.535982], [-104.783617, 39.536898], [-104.783902, 39.536896], [-104.784009, 39.536758], [-104.784296, 39.536896], [-104.784871, 39.537291], [-104.784402, 39.537606], [-104.785152, 39.537734], [-104.78719, 39.537279], [-104.78796, 39.536871], [-104.789401, 39.536849], [-104.789853, 39.535395], [-104.78995, 39.534386]], [[-104.784157, 39.4722], [-104.784149, 39.468496], [-104.782267, 39.4706], [-104.781168, 39.472388], [-104.783425, 39.472083], [-104.784157, 39.4722]], [[-104.781506, 39.507647], [-104.780099, 39.507649], [-104.78012, 39.510705], [-104.781493, 39.510711], [-104.781506, 39.507647]], [[-104.779075, 39.507646], [-104.778728, 39.507644], [-104.777709, 39.506984], [-104.777556, 39.506405], [-104.77532, 39.506441], [-104.775321, 39.507044], [-104.775956, 39.507087], [-104.775514, 39.507656], [-104.775159, 39.507654], [-104.775013, 39.50807], [-104.775581, 39.508892], [-104.775581, 39.510698], [-104.779071, 39.510701], [-104.779075, 39.507646]], [[-104.777259, 39.502051], [-104.777228, 39.500379], [-104.775631, 39.500374], [-104.775658, 39.502104], [-104.777259, 39.502051]], [[-104.777112, 39.496554], [-104.776853, 39.496061], [-104.775423, 39.495253], [-104.77511, 39.494943], [-104.768449, 39.494917], [-104.769007, 39.495506], [-104.769938, 39.495677], [-104.769932, 39.496459], [-104.768109, 39.496665], [-104.767788, 39.496958], [-104.767783, 39.497799], [-104.777106, 39.497394], [-104.777112, 39.496554]], [[-104.774708, 39.510698], [-104.774657, 39.507648], [-104.769956, 39.507626], [-104.76994, 39.507735], [-104.77133, 39.507752], [-104.771952, 39.508187], [-104.772232, 39.508074], [-104.771967, 39.508302], [-104.771548, 39.508022], [-104.768917, 39.507871], [-104.768875, 39.509419], [-104.769078, 39.509455], [-104.768919, 39.509959], [-104.769275, 39.510019], [-104.769163, 39.51043], [-104.770754, 39.510685], [-104.774708, 39.510698]], [[-104.76904, 39.535446], [-104.768908, 39.534637], [-104.76766, 39.534715], [-104.767866, 39.535569], [-104.76904, 39.535446]], [[-104.765151, 39.526076], [-104.765092, 39.524574], [-104.764562, 39.524577], [-104.764521, 39.526095], [-104.765151, 39.526076]], [[-104.757173, 39.489372], [-104.756002, 39.48937], [-104.755986, 39.491122], [-104.75717, 39.491128], [-104.757173, 39.489372]], [[-104.741791, 39.492618], [-104.738642, 39.492201], [-104.738471, 39.494466], [-104.741732, 39.494828], [-104.741791, 39.492618]]]}}