{"type": "Feature", "properties": {"key": "thornton", "name": "Thornton"}, "geometry": {"type": "MultiPolygon", "coordinates": [[[[-104.917738, 39.87099], [-104.91554, 39.872189], [-104.915538, 39.871942], [-104.912468, 39.871805], [-104.912459, 39.870922], [-104.917738, 39.87099]]], [[[-105.01545, 39.867159], [-105.015517, 39.885061], [-105.006099, 39.885065], [-105.006121, 39.87861], [-105.003504, 39.878579], [-105.001691, 39.878233], [-105.001749, 39.874019], [-105.002216, 39.87297], [-105.001309, 39.872554], [-105.001306, 39.87197], [-105.00104, 39.871969], [-105.001036, 39.872467], [-105.000491, 39.87229], [-104.99557, 39.872202], [-104.995068, 39.871879], [-104.995073, 39.871311], [-104.993585, 39.871063], [-104.994633, 39.86882], [-104.994168, 39.86869], [-104.994318, 39.868376], [-104.993357, 39.868093], [-104.993198, 39.868418], [-104.992695, 39.868277], [-104.992169, 39.869388], [-104.991306, 39.869139], [-104.990123, 39.869461], [-104.988852, 39.869253], [-104.988666, 39.86944], [-104.988672, 39.870041], [-104.98889, 39.870331], [-104.991442, 39.87203], [-104.991119, 39.872319], [-104.991212, 39.872383], [-104.988096, 39.874903], [-104.987207, 39.8749], [-104.987102, 39.883231], [-104.986703, 39.884823], [-104.986292, 39.885083], [-104.986292, 39.885217], [-104.95892, 39.885117], [-104.958938, 39.892259], [-104.95716, 39.892242], [-104.954245, 39.890351], [-104.954246, 39.890167], [-104.946122, 39.885027], [-104.945923, 39.885025], [-104.945824, 39.8852], [-104.944752, 39.885284], [-104.944839, 39.885916], [-104.945169, 39.886419], [-104.944933, 39.886597], [-104.944888, 39.892161], [-104.949554, 39.892194], [-104.949578, 39.899398], [-104.958839, 39.899467], [-104.959072, 39.913901], [-104.958605, 39.913897], [-104.95864, 39.914874], [-104.959057, 39.916765], [-104.959073, 39.918017], [-104.96082, 39.921161], [-104.963755, 39.921196], [-104.963759, 39.920837], [-104.96514, 39.921492], [-104.966029, 39.921596], [-104.968474, 39.921379], [-104.968453, 39.91405], [-104.982526, 39.914173], [-104.98987, 39.914064], [-104.988264, 39.918004], [-104.987921, 39.919377], [-104.987776, 39.920671], [-104.988159, 39.968466], [-104.98811, 39.975747], [-104.987784, 39.975746], [-104.987746, 39.986483], [-104.987486, 39.987445], [-104.986768, 39.989107], [-104.981607, 39.998657], [-104.980944, 40.000325], [-104.923314, 40.000418], [-104.92331, 39.99937], [-104.922757, 39.999369], [-104.922756, 39.999131], [-104.922134, 39.999131], [-104.921877, 39.986477], [-104.907168, 39.986397], [-104.903331, 39.986532], [-104.903329, 39.986279], [-104.897818, 39.986525], [-104.884397, 39.986683], [-104.884238, 39.964844], [-104.89375, 39.964783], [-104.893795, 39.960019], [-104.8881, 39.95824], [-104.884709, 39.957016], [-104.884317, 39.956754], [-104.884317, 39.955146], [-104.884772, 39.955308], [-104.884696, 39.955432], [-104.885771, 39.955612], [-104.893759, 39.958689], [-104.893757, 39.957599], [-104.903042, 39.957567], [-104.903036, 39.95166], [-104.903152, 39.95032], [-104.90377, 39.950319], [-104.903722, 39.950158], [-104.903154, 39.950155], [-104.903033, 39.94792], [-104.902254, 39.947716], [-104.900681, 39.948254], [-104.900689, 39.949724], [-104.900332, 39.949725], [-104.900329, 39.950165], [-104.893709, 39.950177], [-104.893684, 39.943107], [-104.891611, 39.943195], [-104.89164, 39.950347], [-104.884141, 39.950364], [-104.884283, 39.943138], [-104.882234, 39.943134], [-104.881969, 39.942826], [-104.881075, 39.942387], [-104.880669, 39.94179], [-104.880293, 39.941683], [-104.879492, 39.941121], [-104.879148, 39.940586], [-104.878756, 39.9402], [-104.878454, 39.940148], [-104.878022, 39.939528], [-104.879579, 39.93952], [-104.879583, 39.937713], [-104.880296, 39.937709], [-104.880301, 39.935898], [-104.884109, 39.93588], [-104.884134, 39.92868], [-104.885311, 39.928567], [-104.893652, 39.928532], [-104.893699, 39.914756], [-104.894422, 39.914639], [-104.895006, 39.915288], [-104.896058, 39.915278], [-104.896665, 39.915023], [-104.899153, 39.914649], [-104.900624, 39.914612], [-104.900623, 39.915194], [-104.902927, 39.915192], [-104.902922, 39.910455], [-104.907293, 39.907065], [-104.912504, 39.907054], [-104.912511, 39.914026], [-104.917483, 39.913972], [-104.917458, 39.91302], [-104.917205, 39.913061], [-104.917251, 39.906037], [-104.912469, 39.906049], [-104.912511, 39.902275], [-104.91556, 39.89994], [-104.915532, 39.899688], [-104.92209, 39.899747], [-104.922181, 39.895113], [-104.921944, 39.895076], [-104.922192, 39.894051], [-104.922029, 39.894051], [-104.923159, 39.892508], [-104.923728, 39.89205], [-104.922263, 39.892085], [-104.921714, 39.89231], [-104.921752, 39.890703], [-104.912646, 39.890701], [-104.912628, 39.885031], [-104.903055, 39.885043], [-104.903069, 39.891381], [-104.902249, 39.891366], [-104.902232, 39.892028], [-104.902566, 39.892549], [-104.887965, 39.892475], [-104.889026, 39.890982], [-104.890278, 39.889935], [-104.890792, 39.888875], [-104.893705, 39.888878], [-104.893693, 39.887321], [-104.895389, 39.886001], [-104.895859, 39.885248], [-104.897544, 39.885249], [-104.896439, 39.884532], [-104.897323, 39.883664], [-104.897376, 39.883439], [-104.901222, 39.883451], [-104.901687, 39.881653], [-104.903059, 39.881656], [-104.90306, 39.881078], [-104.901175, 39.881049], [-104.90065, 39.882873], [-104.897519, 39.882871], [-104.899326, 39.881143], [-104.899861, 39.880022], [-104.899964, 39.879492], [-104.900557, 39.878851], [-104.901434, 39.878303], [-104.903064, 39.878087], [-104.904664, 39.878057], [-104.907201, 39.874353], [-104.912489, 39.874377], [-104.912509, 39.874821], [-104.913747, 39.874495], [-104.917313, 39.871751], [-104.919523, 39.870747], [-104.920069, 39.870198], [-104.921012, 39.868495], [-104.921921, 39.868492], [-104.922015, 39.865753], [-104.921365, 39.866717], [-104.92058, 39.867118], [-104.919137, 39.869459], [-104.918974, 39.870247], [-104.918359, 39.870659], [-104.912464, 39.870582], [-104.912485, 39.867692], [-104.913701, 39.866467], [-104.913748, 39.866206], [-104.914848, 39.866205], [-104.914856, 39.864415], [-104.917234, 39.864403], [-104.91891, 39.863488], [-104.919664, 39.862582], [-104.920009, 39.861688], [-104.920127, 39.861676], [-104.919767, 39.861211], [-104.919539, 39.860024], [-104.919683, 39.858054], [-104.924443, 39.85804], [-104.924448, 39.857036], [-104.924982, 39.857034], [-104.924984, 39.856342], [-104.926821, 39.856339], [-104.926802, 39.858025], [-104.931532, 39.858021], [-104.931568, 39.856928], [-104.935164, 39.857395], [-104.933785, 39.859333], [-104.933332, 39.859733], [-104.93436, 39.859702], [-104.935295, 39.858419], [-104.93684, 39.858827], [-104.936956, 39.858364], [-104.937246, 39.858008], [-104.937097, 39.857136], [-104.937518, 39.856784], [-104.937643, 39.856377], [-104.936945, 39.856405], [-104.936891, 39.856134], [-104.940259, 39.855951], [-104.940218, 39.855364], [-104.936637, 39.855287], [-104.935974, 39.856163], [-104.931658, 39.856258], [-104.931649, 39.852665], [-104.929179, 39.852652], [-104.929201, 39.856169], [-104.9282, 39.856181], [-104.928188, 39.855752], [-104.927612, 39.855752], [-104.927613, 39.856181], [-104.922094, 39.856011], [-104.92209, 39.854819], [-104.922261, 39.854549], [-104.923047, 39.854773], [-104.923744, 39.853211], [-104.924455, 39.852652], [-104.925014, 39.852652], [-104.925008, 39.850987], [-104.926806, 39.849594], [-104.926805, 39.849388], [-104.927982, 39.849388], [-104.927973, 39.847933], [-104.928747, 39.846988], [-104.929523, 39.846725], [-104.930219, 39.845463], [-104.93019, 39.845656], [-104.931386, 39.845881], [-104.931512, 39.845789], [-104.93149, 39.842823], [-104.932867, 39.842825], [-104.932868, 39.841888], [-104.933394, 39.841972], [-104.933412, 39.840062], [-104.934468, 39.839138], [-104.937832, 39.83915], [-104.937838, 39.838161], [-104.936236, 39.838156], [-104.93625, 39.835733], [-104.939419, 39.833206], [-104.942454, 39.831196], [-104.942606, 39.830873], [-104.944357, 39.83088], [-104.945469, 39.833992], [-104.94977, 39.842255], [-104.949375, 39.841736], [-104.94893, 39.841736], [-104.948835, 39.841486], [-104.948328, 39.841761], [-104.948247, 39.842468], [-104.948067, 39.842467], [-104.948038, 39.842805], [-104.947459, 39.842886], [-104.94707, 39.844636], [-104.946748, 39.844635], [-104.946717, 39.84707], [-104.949639, 39.847089], [-104.949623, 39.847994], [-104.946663, 39.847982], [-104.946664, 39.848692], [-104.942947, 39.8487], [-104.941817, 39.852385], [-104.952391, 39.852557], [-104.952375, 39.853548], [-104.949924, 39.853522], [-104.949928, 39.854329], [-104.949645, 39.854328], [-104.949656, 39.85601], [-104.974367, 39.856197], [-104.974208, 39.855015], [-104.974435, 39.854051], [-104.977137, 39.854195], [-104.977134, 39.851158], [-104.977818, 39.851168], [-104.97788, 39.846525], [-104.979087, 39.846519], [-104.980024, 39.846353], [-104.980222, 39.846734], [-104.981186, 39.846325], [-104.982577, 39.845443], [-104.983248, 39.846006], [-104.984374, 39.846308], [-104.984525, 39.845711], [-104.984453, 39.845378], [-104.987277, 39.845384], [-104.987271, 39.847521], [-104.987717, 39.84752], [-104.98772, 39.847339], [-104.988227, 39.84734], [-104.988225, 39.847005], [-104.988655, 39.847009], [-104.98865, 39.847917], [-104.989681, 39.847934], [-104.989684, 39.848935], [-104.993995, 39.848939], [-104.994414, 39.846757], [-104.996715, 39.847094], [-104.996556, 39.848087], [-104.996532, 39.852617], [-105.00596, 39.852572], [-105.006025, 39.868964], [-105.010726, 39.868964], [-105.010717, 39.867121], [-105.01545, 39.867159]], [[-104.987736, 39.972102], [-104.987561, 39.971606], [-104.987566, 39.970322], [-104.985241, 39.970385], [-104.985229, 39.972086], [-104.987736, 39.972102]], [[-104.982913, 39.948944], [-104.98285, 39.946677], [-104.978388, 39.946659], [-104.97845, 39.949167], [-104.982608, 39.949189], [-104.982913, 39.948944]], [[-104.981383, 39.971219], [-104.97847, 39.971226], [-104.978474, 39.971621], [-104.980074, 39.971626], [-104.980072, 39.972045], [-104.978477, 39.972041], [-104.978503, 39.973862], [-104.980673, 39.973879], [-104.980681, 39.972065], [-104.981379, 39.972061], [-104.981383, 39.971219]], [[-104.980896, 39.968436], [-104.979679, 39.968424], [-104.979777, 39.967609], [-104.978551, 39.967604], [-104.97852, 39.971095], [-104.980884, 39.971099], [-104.980896, 39.968436]], [[-104.980175, 39.954008], [-104.978508, 39.954001], [-104.978533, 39.956042], [-104.980214, 39.956024], [-104.980175, 39.954008]], [[-104.979953, 39.96097], [-104.978598, 39.960967], [-104.978591, 39.961925], [-104.979945, 39.961931], [-104.979953, 39.96097]], [[-104.978326, 39.986663], [-104.972776, 39.986679], [-104.972757, 39.988666], [-104.973694, 39.988663], [-104.973894, 39.989443], [-104.973841, 39.990795], [-104.974171, 39.991369], [-104.975158, 39.991794], [-104.97826, 39.991876], [-104.978326, 39.986663]], [[-104.978192, 39.957422], [-104.978018, 39.943164], [-104.971435, 39.943154], [-104.971411, 39.944061], [-104.970285, 39.944057], [-104.970249, 39.943148], [-104.959423, 39.943005], [-104.959528, 39.957354], [-104.978192, 39.957422]], [[-104.978157, 39.972506], [-104.978145, 39.970104], [-104.978138, 39.969924], [-104.976723, 39.970731], [-104.976525, 39.971135], [-104.976616, 39.971393], [-104.977192, 39.971908], [-104.978157, 39.972506]], [[-104.978153, 39.986335], [-104.978085, 39.982787], [-104.977854, 39.982785], [-104.977854, 39.982922], [-104.977106, 39.982923], [-104.976825, 39.982587], [-104.976485, 39.982524], [-104.975904, 39.982924], [-104.97359, 39.982927], [-104.973585, 39.986458], [-104.978, 39.986453], [-104.978153, 39.986335]], [[-104.972906, 39.979288], [-104.965029, 39.978023], [-104.960109, 39.977596], [-104.95989, 39.978797], [-104.959517, 39.979003], [-104.959525, 39.980829], [-104.960765, 39.98083], [-104.960766, 39.981733], [-104.959529, 39.981731], [-104.959551, 39.986356], [-104.961928, 39.986488], [-104.968842, 39.986503], [-104.968884, 39.979287], [-104.972906, 39.979288]], [[-104.970192, 39.986673], [-104.963424, 39.98668], [-104.962981, 39.987243], [-104.961579, 39.98685], [-104.959542, 39.986771], [-104.959507, 39.991807], [-104.964184, 39.991828], [-104.964168, 39.993582], [-104.970077, 39.993615], [-104.968786, 39.992191], [-104.968807, 39.987212], [-104.9695, 39.987565], [-104.97017, 39.987563], [-104.970192, 39.986673]], [[-104.96893, 39.972027], [-104.966686, 39.972018], [-104.966677, 39.972584], [-104.968915, 39.972705], [-104.96893, 39.972027]], [[-104.968915, 39.972911], [-104.966255, 39.972767], [-104.963732, 39.975676], [-104.968893, 39.977136], [-104.968915, 39.972911]], [[-104.967519, 39.957644], [-104.966453, 39.957642], [-104.966453, 39.958084], [-104.967305, 39.958086], [-104.967511, 39.957895], [-104.967519, 39.957644]], [[-104.962069, 39.972011], [-104.961547, 39.972017], [-104.959529, 39.972001], [-104.959681, 39.972506], [-104.960029, 39.972809], [-104.960387, 39.97291], [-104.961332, 39.972455], [-104.962069, 39.972345], [-104.962069, 39.972011]], [[-104.961806, 39.994563], [-104.960269, 39.994555], [-104.960274, 39.99397], [-104.95949, 39.993966], [-104.959482, 39.995884], [-104.959236, 39.995884], [-104.959262, 39.993553], [-104.941783, 39.993519], [-104.941178, 39.988784], [-104.941182, 39.986578], [-104.93883, 39.986562], [-104.93882, 39.987063], [-104.94011, 39.987285], [-104.940313, 39.993607], [-104.940713, 39.997097], [-104.931304, 39.997063], [-104.931257, 40.00026], [-104.954566, 40.000222], [-104.954565, 40.000127], [-104.959179, 40.000211], [-104.959192, 39.996361], [-104.961787, 39.996377], [-104.961806, 39.994563]], [[-104.961506, 39.969286], [-104.961504, 39.968331], [-104.959557, 39.968319], [-104.959557, 39.969727], [-104.960495, 39.969287], [-104.961506, 39.969286]], [[-104.958872, 39.942945], [-104.958226, 39.942944], [-104.956459, 39.94552], [-104.955688, 39.947256], [-104.955356, 39.948677], [-104.955285, 39.950384], [-104.956053, 39.957337], [-104.956565, 39.957337], [-104.956573, 39.956926], [-104.95582, 39.950372], [-104.955936, 39.948449], [-104.956701, 39.946142], [-104.958872, 39.942945]], [[-104.956243, 39.95901], [-104.956591, 39.957441], [-104.946719, 39.957398], [-104.946555, 39.957521], [-104.931471, 39.957496], [-104.931427, 39.964662], [-104.940267, 39.964663], [-104.940268, 39.966434], [-104.939039, 39.966784], [-104.93904, 39.967507], [-104.936333, 39.967564], [-104.935566, 39.967849], [-104.934995, 39.968335], [-104.933342, 39.967866], [-104.931414, 39.96781], [-104.931413, 39.971299], [-104.932964, 39.971836], [-104.93368, 39.971837], [-104.937066, 39.972832], [-104.938033, 39.972017], [-104.939283, 39.972022], [-104.938596, 39.972889], [-104.939324, 39.97331], [-104.93998, 39.974015], [-104.939829, 39.974127], [-104.942269, 39.975221], [-104.942855, 39.975075], [-104.944724, 39.975606], [-104.944951, 39.974999], [-104.94648, 39.975451], [-104.94493, 39.97749], [-104.942126, 39.977501], [-104.940392, 39.977293], [-104.940402, 39.977052], [-104.939457, 39.976799], [-104.936214, 39.975502], [-104.935044, 39.976979], [-104.934588, 39.976765], [-104.935757, 39.975287], [-104.934841, 39.97479], [-104.933445, 39.973693], [-104.933445, 39.973975], [-104.929936, 39.9719], [-104.921051, 39.971861], [-104.921069, 39.972982], [-104.922002, 39.972975], [-104.922029, 39.97767], [-104.920095, 39.977498], [-104.918961, 39.977897], [-104.917547, 39.978014], [-104.917098, 39.978245], [-104.916261, 39.979124], [-104.903293, 39.979139], [-104.903328, 39.986141], [-104.922633, 39.986024], [-104.949861, 39.986256], [-104.949873, 39.978306], [-104.950919, 39.978176], [-104.950821, 39.976994], [-104.949853, 39.976967], [-104.945978, 39.977415], [-104.947282, 39.97558], [-104.946978, 39.975577], [-104.948336, 39.973639], [-104.948894, 39.972525], [-104.950963, 39.966518], [-104.951829, 39.96514], [-104.955511, 39.960472], [-104.956243, 39.95901]], [[-104.945961, 39.957324], [-104.94596, 39.955865], [-104.944498, 39.955861], [-104.944498, 39.953769], [-104.940379, 39.953759], [-104.940389, 39.957305], [-104.945961, 39.957324]], [[-104.940146, 39.957274], [-104.940126, 39.950077], [-104.933489, 39.950079], [-104.933489, 39.951473], [-104.935842, 39.951465], [-104.935864, 39.954239], [-104.931488, 39.954255], [-104.931463, 39.957292], [-104.940146, 39.957274]], [[-104.93607, 39.875981], [-104.93604, 39.874093], [-104.93131, 39.874164], [-104.931332, 39.875984], [-104.931225, 39.875999], [-104.921924, 39.876188], [-104.921897, 39.873916], [-104.931305, 39.873732], [-104.931268, 39.870635], [-104.921916, 39.870718], [-104.93147, 39.862284], [-104.931466, 39.861381], [-104.929038, 39.863525], [-104.928912, 39.863999], [-104.928522, 39.864557], [-104.92795, 39.865062], [-104.927041, 39.865291], [-104.921113, 39.870519], [-104.921192, 39.877943], [-104.931354, 39.877752], [-104.931333, 39.876082], [-104.93607, 39.875981]], [[-104.935293, 39.987457], [-104.935126, 39.987214], [-104.933756, 39.986558], [-104.926995, 39.986366], [-104.922155, 39.986414], [-104.922206, 39.993589], [-104.928621, 39.9936], [-104.928722, 39.993443], [-104.930226, 39.993034], [-104.931045, 39.992399], [-104.931067, 39.991645], [-104.931488, 39.991619], [-104.931485, 39.989235], [-104.932433, 39.988894], [-104.933187, 39.988093], [-104.934127, 39.988314], [-104.934393, 39.988229], [-104.935189, 39.987836], [-104.935293, 39.987457]], [[-104.931641, 39.851476], [-104.931635, 39.85053], [-104.930238, 39.85054], [-104.930245, 39.851471], [-104.931641, 39.851476]], [[-104.931631, 39.848765], [-104.930706, 39.848764], [-104.93071, 39.848978], [-104.931631, 39.848984], [-104.931631, 39.848765]], [[-104.931381, 39.880403], [-104.931354, 39.87789], [-104.927288, 39.877972], [-104.927263, 39.878356], [-104.927825, 39.878376], [-104.927852, 39.881532], [-104.930409, 39.881509], [-104.931263, 39.88086], [-104.931381, 39.880403]], [[-104.926726, 39.885033], [-104.926691, 39.88155], [-104.92199, 39.881632], [-104.922031, 39.885099], [-104.926726, 39.885033]], [[-104.922064, 39.957441], [-104.920807, 39.95745], [-104.920776, 39.961802], [-104.922036, 39.96181], [-104.922064, 39.957441]], [[-104.92203, 39.952011], [-104.922022, 39.950129], [-104.917314, 39.950104], [-104.917303, 39.94962], [-104.91393, 39.949652], [-104.913946, 39.95206], [-104.921719, 39.952035], [-104.92203, 39.952011]], [[-104.922005, 39.880723], [-104.921936, 39.87799], [-104.916197, 39.878127], [-104.917299, 39.87973], [-104.917439, 39.882539], [-104.919652, 39.88254], [-104.919597, 39.880728], [-104.922005, 39.880723]], [[-104.921961, 39.906034], [-104.920469, 39.906025], [-104.920463, 39.907653], [-104.921937, 39.907653], [-104.921961, 39.906034]], [[-104.921932, 39.910068], [-104.921937, 39.90777], [-104.920465, 39.907768], [-104.920458, 39.910082], [-104.921932, 39.910068]], [[-104.921899, 39.921222], [-104.921889, 39.915048], [-104.918095, 39.91525], [-104.918246, 39.914842], [-104.918251, 39.914175], [-104.90778, 39.914376], [-104.907776, 39.914151], [-104.903186, 39.914271], [-104.903217, 39.916374], [-104.904782, 39.916364], [-104.904786, 39.916713], [-104.907815, 39.916694], [-104.907786, 39.920014], [-104.903195, 39.920035], [-104.903204, 39.921387], [-104.921899, 39.921222]], [[-104.920594, 39.957478], [-104.919103, 39.95741], [-104.919091, 39.95918], [-104.920579, 39.95917], [-104.920594, 39.957478]], [[-104.920582, 39.899848], [-104.917278, 39.89985], [-104.917271, 39.901217], [-104.920568, 39.90128], [-104.920582, 39.899848]], [[-104.918563, 39.971854], [-104.912609, 39.971859], [-104.91262, 39.974287], [-104.918574, 39.974282], [-104.918563, 39.971854]], [[-104.917314, 39.885242], [-104.917272, 39.881643], [-104.914942, 39.881634], [-104.914953, 39.882537], [-104.916394, 39.882538], [-104.916415, 39.884207], [-104.912885, 39.884199], [-104.912896, 39.885239], [-104.917314, 39.885242]], [[-104.90458, 39.949469], [-104.904563, 39.943947], [-104.903803, 39.943223], [-104.903245, 39.943269], [-104.903273, 39.949221], [-104.903379, 39.949472], [-104.90458, 39.949469]], [[-104.903073, 39.93208], [-104.903069, 39.93126], [-104.901519, 39.931264], [-104.901522, 39.932088], [-104.903073, 39.93208]], [[-104.902926, 39.921418], [-104.898377, 39.921399], [-104.89836, 39.927512], [-104.897184, 39.927516], [-104.897184, 39.928484], [-104.902889, 39.928449], [-104.902926, 39.921418]], [[-104.89978, 39.885248], [-104.898653, 39.885249], [-104.898661, 39.885913], [-104.899801, 39.885912], [-104.89978, 39.885248]], [[-104.899306, 39.986314], [-104.899296, 39.985098], [-104.897572, 39.986321], [-104.899306, 39.986314]], [[-104.898407, 39.943013], [-104.898405, 39.942383], [-104.89691, 39.942387], [-104.896909, 39.943018], [-104.898407, 39.943013]], [[-104.886866, 39.935872], [-104.886631, 39.935873], [-104.886623, 39.934061], [-104.884407, 39.934066], [-104.884384, 39.936701], [-104.886865, 39.936696], [-104.886866, 39.935872]], [[-104.88599, 39.92876], [-104.884346, 39.928817], [-104.884356, 39.929369], [-104.885994, 39.929363], [-104.88599, 39.92876]], [[-104.885776, 39.943203], [-104.884443, 39.943205], [-104.884448, 39.944263], [-104.885781, 39.944262], [-104.885776, 39.943203]], [[-104.885687, 39.938425], [-104.884385, 39.938426], [-104.884385, 39.939291], [-104.885687, 39.93929], [-104.885687, 39.938425]]]]}}